{
"type": "FeatureCollection",
"name": "bus_catchments",
"crs": { "type": "name", "properties": { "name": "urn:ogc:def:crs:OGC:1.3:CRS84" } },
"features": [
{ "type": "Feature", "properties": { "bus": "S.W.Penisula", "gen_view_gCO2_per_kWh": 238.296, "dominant_carrier": "CCGT" }, "geometry": { "type": "MultiPolygon", "coordinates": [ [ [ [ -2.409134435085018, 51.223426371897546 ], [ -2.423959737659047, 51.219183690297079 ], [ -2.409043807129879, 51.223417723823779 ], [ -1.62273546854794, 51.148385108318067 ], [ -1.645556793098409, 50.722118735950183 ], [ -1.682464697354822, 50.731458479575757 ], [ -1.721074497397194, 50.729314789570594 ], [ -1.74833816744892, 50.707925019537555 ], [ -1.828894217524628, 50.715849359545011 ], [ -1.907688707624964, 50.700122889517608 ], [ -1.936287007677788, 50.679347999485344 ], [ -1.942991707715106, 50.651375389443572 ], [ -1.917189647699454, 50.640537609428996 ], [ -1.946322187752439, 50.620097699397249 ], [ -1.945817127782288, 50.592017009355956 ], [ -2.049336347914018, 50.57207660932071 ], [ -2.196299298024719, 50.617325959379627 ], [ -2.384426538218093, 50.631382509391052 ], [ -2.439105718294416, 50.617062089366868 ], [ -2.404944918288725, 50.585813989321785 ], [ -2.405829188327697, 50.549554279267667 ], [ -2.456912518427355, 50.508907519204442 ], [ -2.455545628376155, 50.556418909275258 ], [ -2.478124518381212, 50.575929079303293 ], [ -2.698939058523743, 50.683173899455007 ], [ -2.691962410921366, 50.690073642135339 ], [ -2.90740671872373, 50.728557489516263 ], [ -3.008084778877468, 50.695369039461241 ], [ -3.070474448950515, 50.697688839462486 ], [ -3.09253516899397, 50.680764179435492 ], [ -3.251587599200522, 50.668376119410354 ], [ -3.294089279292789, 50.62743418934528 ], [ -3.35262647938855, 50.603349229305735 ], [ -3.412808619458513, 50.608314929311128 ], [ -3.501776969663907, 50.510389289156102 ], [ -3.503598709690632, 50.485008569116971 ], [ -3.473464459676959, 50.460329979080406 ], [ -3.547229959789167, 50.43924344904476 ], [ -3.542553979811891, 50.409605258999612 ], [ -3.474566639739448, 50.39725476898402 ], [ -3.512674679839508, 50.342710878899247 ], [ -3.629156640030843, 50.294416398820104 ], [ -3.649567830108738, 50.239960668736707 ], [ -3.636877410114866, 50.217265688703229 ], [ -3.718512690235879, 50.197185998668509 ], [ -3.767166840278601, 50.216227768694559 ], [ -3.784318400311141, 50.204739338676283 ], [ -3.815175420344863, 50.210136088682766 ], [ -3.873172380392234, 50.237616198721355 ], [ -3.864883690362007, 50.258434038753379 ], [ -3.952898430434971, 50.300459378813223 ], [ -4.043776190562764, 50.289126928791561 ], [ -4.113649610641448, 50.302182508808365 ], [ -4.150391050664374, 50.329421588848767 ], [ -4.222010380778598, 50.307414378811572 ], [ -4.236144740774053, 50.332799978850275 ], [ -4.303619070842779, 50.355534318882775 ], [ -4.406530180977066, 50.359016058884009 ], [ -4.437954231024803, 50.352834308873092 ], [ -4.443777751052089, 50.331086838838871 ], [ -4.679697281388695, 50.312068818799638 ], [ -4.694639301385802, 50.338738858840983 ], [ -4.751419051475124, 50.325768968818409 ], [ -4.745829581492502, 50.297000278773432 ], [ -4.774181101541996, 50.284919448753342 ], [ -4.761550381553039, 50.252345828702822 ], [ -4.794148491629157, 50.216343158645252 ], [ -4.858811271706205, 50.230080558663978 ], [ -4.901292931798414, 50.191290658601581 ], [ -4.947590661854893, 50.200114468613386 ], [ -4.977120921939846, 50.148929228532261 ], [ -5.005219401990058, 50.13584671851067 ], [ -5.045625121993896, 50.197171308604737 ], [ -5.034645112024766, 50.143062678520607 ], [ -5.065211222070958, 50.138836438512683 ], [ -5.093852222147444, 50.095961228444658 ], [ -5.054248912121523, 50.061858908393589 ], [ -5.061345612154721, 50.034607038351169 ], [ -5.098746622235198, 50.001184358297849 ], [ -5.158663072318465, 50.001188798294905 ], [ -5.197979922412196, 49.955364968222391 ], [ -5.250631802469122, 49.974981808249979 ], [ -5.312508972472327, 50.074882138402089 ], [ -5.38760408255999, 50.097667838434482 ], [ -5.430031542624212, 50.093194688425704 ], [ -5.508246452712405, 50.122345208468317 ], [ -5.532959622760888, 50.106527718442422 ], [ -5.522491122766715, 50.080960028402629 ], [ -5.545152302817621, 50.058502698366418 ], [ -5.67266582303392, 50.018562578298351 ], [ -5.699703823048488, 50.049109638345179 ], [ -5.751390583109584, 50.066715938370841 ], [ -5.697722123016827, 50.084930518401741 ], [ -5.727707613030057, 50.12297967846078 ], [ -5.674724372915795, 50.169102508536049 ], [ -5.630399982847719, 50.173441428544557 ], [ -5.550170062693415, 50.220172938621822 ], [ -5.474709522582078, 50.222782988628644 ], [ -5.436641722546422, 50.199321978592806 ], [ -5.409823622494095, 50.216117938620407 ], [ -5.4052625424627, 50.24637469866866 ], [ -5.353789652389825, 50.245129418668554 ], [ -5.252367592209366, 50.287954918740247 ], [ -5.236579462146612, 50.336361688817931 ], [ -5.161358442026332, 50.352049988845501 ], [ -5.151337381966278, 50.406879908933547 ], [ -5.055468591804364, 50.437470218985602 ], [ -5.030425021688414, 50.53318311914046 ], [ -5.044609571697216, 50.546790339162143 ], [ -5.003503731616, 50.573831259207019 ], [ -4.944048741532897, 50.572252419205938 ], [ -4.936938951534833, 50.558035859183093 ], [ -4.94037596151465, 50.587700809231045 ], [ -4.920733871476569, 50.599838859251193 ], [ -4.795489251295012, 50.605650099263705 ], [ -4.768708611200305, 50.672491139372731 ], [ -4.663781061015572, 50.716368219446366 ], [ -4.656205880983319, 50.741557599487585 ], [ -4.564439620815703, 50.787362829564074 ], [ -4.573489570727633, 50.904270259755805 ], [ -4.532655360567012, 51.024660639955748 ], [ -4.421623970417028, 51.018061469945721 ], [ -4.370645570366386, 50.994652979907457 ], [ -4.307387320273523, 51.000694149918097 ], [ -4.216359800087457, 51.069731870033088 ], [ -4.228756830067225, 51.112280190103625 ], [ -4.268447730095009, 51.143398690155237 ], [ -4.223413240024724, 51.152412660170434 ], [ -4.237254570011979, 51.188999220231501 ], [ -4.204933979954137, 51.203913780256514 ], [ -3.926143229543056, 51.236560200311615 ], [ -3.812388849389407, 51.236682530312144 ], [ -3.784315179338918, 51.250876900335768 ], [ -3.615959059140746, 51.222625580289773 ], [ -3.534809389021792, 51.23595737031215 ], [ -3.397604578889012, 51.186925510232811 ], [ -3.27411019873241, 51.185044990230928 ], [ -3.13046918852214, 51.214745410280592 ], [ -3.065172798447849, 51.206745650268353 ], [ -3.021725548354739, 51.24709301033414 ], [ -3.018785871858286, 51.281601695246906 ], [ -2.409134435085018, 51.223426371897546 ] ], [ [ -2.509649774279892, 51.124977718749165 ], [ -2.510768536842771, 51.127118623799269 ], [ -2.51166088785557, 51.12638668014867 ], [ -2.509649774279892, 51.124977718749165 ] ], [ [ -2.500386767861658, 51.107251690118744 ], [ -2.501797470993779, 51.109951263343689 ], [ -2.579240507973025, 51.088780220087912 ], [ -2.500386767861658, 51.107251690118744 ] ], [ [ -2.716255283412228, 51.009412863433013 ], [ -2.694510148194705, 51.003926349951676 ], [ -2.716349358215119, 51.009504509959903 ], [ -2.716255283412228, 51.009412863433013 ] ], [ [ -2.678156038430522, 50.751021079559607 ], [ -2.642046618393581, 50.746012589553366 ], [ -2.660039348406376, 50.754000119564843 ], [ -2.678156038430522, 50.751021079559607 ] ], [ [ -2.690883715685384, 50.691140446707251 ], [ -2.674324588470319, 50.707517039493169 ], [ -2.678156038430522, 50.751021079559607 ], [ -2.690883715685384, 50.691140446707251 ] ] ], [ [ [ -6.452935654299793, 49.874170868038348 ], [ -6.386402104182536, 49.896805568076765 ], [ -6.37444121414612, 49.921257568115905 ], [ -6.398531674161025, 49.949764608160095 ], [ -6.331559674035734, 49.982004098213856 ], [ -6.285530423965668, 49.983065598217351 ], [ -6.23705203391792, 49.950303478167399 ], [ -6.329934824111349, 49.878812328050813 ], [ -6.452935654299793, 49.874170868038348 ] ] ], [ [ [ -4.68089138062542, 51.205048570258263 ], [ -4.64301602060918, 51.1596058501814 ], [ -4.670167550653324, 51.153352190170828 ], [ -4.68089138062542, 51.205048570258263 ] ] ] ] } },
{ "type": "Feature", "properties": { "bus": "Melksham", "gen_view_gCO2_per_kWh": 230.96, "dominant_carrier": "CCGT" }, "geometry": { "type": "MultiPolygon", "coordinates": [ [ [ [ -3.029333995853793, 52.142270158023997 ], [ -1.566525138354895, 51.698797789053444 ], [ -1.62273546854794, 51.148385108318067 ], [ -2.409043807129879, 51.223417723823779 ], [ -2.369281034907694, 51.234831554813972 ], [ -2.409134435085018, 51.223426371897546 ], [ -3.018785871858286, 51.281601695246906 ], [ -3.015899728281734, 51.315481960445311 ], [ -3.039883438298832, 51.329055940467327 ], [ -2.995953728242165, 51.330680810470184 ], [ -3.006687768227376, 51.360137790518259 ], [ -2.96832878816574, 51.37427324054152 ], [ -2.983976678169112, 51.391216460569218 ], [ -2.913193748069729, 51.402496900587842 ], [ -2.809087337860498, 51.485221190723422 ], [ -2.737040917758983, 51.498081920744468 ], [ -2.636824207544524, 51.591992690898358 ], [ -2.614547777526203, 51.58279069088313 ], [ -2.651517127661511, 51.600824838430121 ], [ -2.676048817582256, 51.602793560916396 ], [ -2.707620337644149, 51.57910276087749 ], [ -2.902065517934218, 51.529228080796095 ], [ -2.984357408027377, 51.540351430814908 ], [ -3.112168688240867, 51.486579340726387 ], [ -3.154232378332356, 51.446587440660295 ], [ -3.162861928382704, 51.404873410591435 ], [ -3.193524748434723, 51.391308780569048 ], [ -3.400747778715131, 51.377962120546954 ], [ -3.560472568907557, 51.397188410579204 ], [ -3.65408544896365, 51.472998810706571 ], [ -3.723786659053968, 51.476966900713762 ], [ -3.786336609063049, 51.562032790858332 ], [ -3.820797759102374, 51.570836820873765 ], [ -3.817354659083525, 51.586820470900904 ], [ -3.86119685911927, 51.614628940949025 ], [ -3.976747659291897, 51.600100740925875 ], [ -3.991250549328025, 51.58176866089471 ], [ -3.96920344931487, 51.561748360860186 ], [ -4.062690319452355, 51.553234030846887 ], [ -4.132761279540815, 51.564466580867098 ], [ -4.150221299589024, 51.536962930820188 ], [ -4.192879369643851, 51.543053010831208 ], [ -4.210157309677426, 51.532326080813014 ], [ -4.289970093576225, 51.550141661182316 ], [ -3.029333995853793, 52.142270158023997 ] ], [ [ -2.274925601828336, 51.573550554867992 ], [ -2.245154917084669, 51.581388540879807 ], [ -2.275382907127144, 51.574499400868646 ], [ -2.274925601828336, 51.573550554867992 ] ], [ [ -2.282659207289322, 51.421688040621881 ], [ -2.293283895863212, 51.370433843527209 ], [ -2.278540867290379, 51.415882160612618 ], [ -2.289070367008587, 51.452359496761225 ], [ -2.306114611589809, 51.428591667348485 ], [ -2.282659207289322, 51.421688040621881 ] ], [ [ -2.526803959757155, 51.444008479046971 ], [ -2.526880977556313, 51.443982930656553 ], [ -2.526748040488775, 51.443845633771573 ], [ -2.526803959757155, 51.444008479046971 ] ], [ [ -2.51235773930756, 51.428983386824711 ], [ -2.508181497553027, 51.424670180625327 ], [ -2.492286942992676, 51.422895177366698 ], [ -2.51235773930756, 51.428983386824711 ] ], [ [ -2.454502642981093, 51.418675665873565 ], [ -2.443258047482799, 51.417419940613975 ], [ -2.34328984734244, 51.43953345065021 ], [ -2.454502642981093, 51.418675665873565 ] ], [ [ -3.099251627726391, 52.022649301631702 ], [ -3.067844637721028, 51.98348172156355 ], [ -3.008283542220232, 51.927411922111581 ], [ -3.099251627726391, 52.022649301631702 ] ], [ [ -3.007887099201949, 51.927038717415748 ], [ -3.007788227694849, 51.926945641465274 ], [ -2.976878787654097, 51.927676271465749 ], [ -3.007887099201949, 51.927038717415748 ] ], [ [ -2.971770307668673, 51.904881321426849 ], [ -2.96878729586565, 51.905803750113634 ], [ -2.976878787654097, 51.927676271465749 ], [ -2.971770307668673, 51.904881321426849 ] ], [ [ -2.75663583744945, 51.845918621322475 ], [ -2.671996365054465, 51.834810867627183 ], [ -2.69729439737589, 51.844834331319547 ], [ -2.75663583744945, 51.845918621322475 ] ], [ [ -2.659749850913833, 51.829958613179613 ], [ -2.665352863284361, 51.813767432670232 ], [ -2.650311287334985, 51.826218911287462 ], [ -2.659749850913833, 51.829958613179613 ] ], [ [ -2.674023071855481, 51.788712890087488 ], [ -2.680647567427102, 51.769569901193222 ], [ -2.662700087420072, 51.753652631166389 ], [ -2.674023071855481, 51.788712890087488 ] ], [ [ -2.687670593525883, 51.729568128399563 ], [ -2.687694737474315, 51.729544841126554 ], [ -2.669464317477966, 51.702248271080926 ], [ -2.687670593525883, 51.729568128399563 ] ] ], [ [ [ -3.120461668356409, 51.375538660543171 ], [ -3.122419178355419, 51.37920672054922 ], [ -3.116411808346708, 51.380343130551061 ], [ -3.120461668356409, 51.375538660543171 ] ] ] ] } },
{ "type": "Feature", "properties": { "bus": "Deeside", "gen_view_gCO2_per_kWh": 196.534, "dominant_carrier": "CCGT" }, "geometry": { "type": "Polygon", "coordinates": [ [ [ -2.632249730270992, 53.327282423022652 ], [ -2.539595893593989, 52.731046314470227 ], [ -3.029333995853793, 52.142270158023997 ], [ -4.289970093576225, 51.550141661182316 ], [ -4.336586989832916, 51.560547350863345 ], [ -4.297766729757687, 51.583996910903231 ], [ -4.319786649765649, 51.611755270951534 ], [ -4.248770549630468, 51.651712311019416 ], [ -4.182299619553838, 51.630789350982013 ], [ -4.118445429443549, 51.654225111021326 ], [ -4.155554709498835, 51.650875671016202 ], [ -4.207170739548018, 51.679078141066029 ], [ -4.279698659663254, 51.665136581043257 ], [ -4.324284819721697, 51.671566621055312 ], [ -4.388184879771544, 51.721985031144492 ], [ -4.370788459735749, 51.734751471166398 ], [ -4.37941461972324, 51.764745991219108 ], [ -4.402405349767012, 51.752176301197622 ], [ -4.431733719805126, 51.757552951207785 ], [ -4.412929379791048, 51.741612471179408 ], [ -4.448733329854669, 51.72758176115569 ], [ -4.55361555000092, 51.73584013117263 ], [ -4.675788710192356, 51.721576431150488 ], [ -4.705181330287629, 51.65773849103909 ], [ -4.670029290249603, 51.640822821008747 ], [ -4.682391280280183, 51.625629390982397 ], [ -4.851263840517333, 51.641638571013935 ], [ -4.922614090662844, 51.592927430929841 ], [ -5.067838680861288, 51.617988820976905 ], [ -5.069660820832758, 51.657798761047225 ], [ -5.180626050987799, 51.675500961081177 ], [ -5.199243780993373, 51.705092001134204 ], [ -5.231565361038446, 51.710948261145447 ], [ -5.293838121150696, 51.68955953110892 ], [ -5.245426541052472, 51.720415441162693 ], [ -5.319722841157163, 51.733372151187794 ], [ -5.305423771122164, 51.750256761217592 ], [ -5.215571180992163, 51.739137851195309 ], [ -5.180551680908437, 51.777976221263671 ], [ -5.119290550816494, 51.77545909125746 ], [ -5.135482990780326, 51.854336231399053 ], [ -5.203847570886182, 51.85363344139995 ], [ -5.231370210918339, 51.867228611425247 ], [ -5.341203881107858, 51.842232841383741 ], [ -5.383837641153203, 51.870344571435751 ], [ -5.415373391219409, 51.847885101396244 ], [ -5.403287111162008, 51.899218291488609 ], [ -5.384286281126886, 51.906350781500883 ], [ -5.37977036113648, 51.884141891460573 ], [ -5.348579281090394, 51.880609641453148 ], [ -5.314254651014917, 51.909674581504554 ], [ -5.200013770804543, 51.952792001578516 ], [ -5.09425168062505, 51.973639851612425 ], [ -5.100188220603559, 52.013598811684844 ], [ -5.078144470553075, 52.035043471722851 ], [ -4.988437430419773, 52.028807391708135 ], [ -4.967287150405606, 52.005265261664867 ], [ -4.927776920336538, 52.016407631683464 ], [ -4.913113930297127, 52.038264461722335 ], [ -4.850024960209806, 52.027014961699656 ], [ -4.844567150182405, 52.051401331743406 ], [ -4.795703980099231, 52.06282978176214 ], [ -4.732276769956397, 52.122201101866729 ], [ -4.569263659690339, 52.14812006190671 ], [ -4.519965839623116, 52.140032621890093 ], [ -4.380139019351865, 52.218591552025494 ], [ -4.325578749271338, 52.218375792022655 ], [ -4.2376975391112, 52.256068512086507 ], [ -4.174726748982672, 52.300228442163068 ], [ -4.059104278659698, 52.487705572496097 ], [ -4.062558918624597, 52.536880472585707 ], [ -4.137179658675241, 52.610295812724203 ], [ -4.064253458484354, 52.712990882907931 ], [ -4.158659038549246, 52.807847163089271 ], [ -4.127274628469187, 52.849415993163994 ], [ -4.151607618464047, 52.902101433263574 ], [ -4.221057818560049, 52.913365373289672 ], [ -4.313631828707146, 52.90509093328113 ], [ -4.326738958740291, 52.888157663250503 ], [ -4.388246218832005, 52.891083313260481 ], [ -4.455809788954323, 52.866906833220284 ], [ -4.492054629035347, 52.834055403161521 ], [ -4.494547329052756, 52.816409923128738 ], [ -4.4542885389986, 52.806478813107425 ], [ -4.469076079032021, 52.792569933082554 ], [ -4.534892219147676, 52.773723493051989 ], [ -4.551894469152344, 52.801783713105472 ], [ -4.606381539222538, 52.820242923143816 ], [ -4.695468459391861, 52.779592743073991 ], [ -4.757349129486536, 52.782141523083013 ], [ -4.810404769598335, 52.743948283015094 ], [ -4.73279237939128, 52.857712493223083 ], [ -4.57327070907099, 52.952112503388754 ], [ -4.520043698991731, 52.947612843376234 ], [ -4.348575398644423, 53.055595603565791 ], [ -4.375731998626176, 53.134329143716357 ], [ -4.422172828699559, 53.132472083716756 ], [ -4.468054038736554, 53.178052863806926 ], [ -4.514113248802416, 53.186241023826398 ], [ -4.533736778798124, 53.233234553917427 ], [ -4.605431398909617, 53.235210643927459 ], [ -4.634203148926325, 53.2743046240046 ], [ -4.688467909007826, 53.280721004021714 ], [ -4.708380829018652, 53.309381484078372 ], [ -4.683264448964776, 53.328329644112415 ], [ -4.580190188791692, 53.340982014127185 ], [ -4.565910288744829, 53.373957314188978 ], [ -4.619286498797424, 53.418017994278529 ], [ -4.610436538774513, 53.430107034300903 ], [ -4.569752568719757, 53.416465184270827 ], [ -4.49945235860602, 53.419679914270283 ], [ -4.434458208488657, 53.439771124302538 ], [ -4.28415596826823, 53.419818214249972 ], [ -4.257438458265837, 53.367924724148629 ], [ -4.21994867821279, 53.36136581413264 ], [ -4.203219068231162, 53.303332634020954 ], [ -4.120429788087266, 53.325261714054953 ], [ -4.016416677927932, 53.326140054047009 ], [ -4.093063778097354, 53.257929563925209 ], [ -4.079472938093635, 53.236022093882681 ], [ -3.850916647696464, 53.302751573987727 ], [ -3.886069717723404, 53.335673784052929 ], [ -3.874114447696188, 53.347449904073983 ], [ -3.813234337619221, 53.329178804033951 ], [ -3.772322167554259, 53.334050574039296 ], [ -3.714074107492419, 53.302850683975414 ], [ -3.614715917349941, 53.297591613956499 ], [ -3.319435916867211, 53.363060614051228 ], [ -3.105065956655885, 53.250475313823145 ], [ -3.119784286660712, 53.269366513859282 ], [ -3.098057306618536, 53.283180133882809 ], [ -3.128016216627532, 53.322847393958781 ], [ -3.235347926727272, 53.386518954086888 ], [ -3.029635616379899, 53.453156794190754 ], [ -3.111973256407681, 53.56062480439904 ], [ -3.059187506814817, 53.629695396901184 ], [ -2.632249730270992, 53.327282423022652 ] ], [ [ -3.699253197143008, 52.364814290399437 ], [ -3.66900057827877, 52.363020490733632 ], [ -3.677895498210799, 52.368420672261259 ], [ -3.699253197143008, 52.364814290399437 ] ], [ [ -3.647741541619915, 52.361759956793605 ], [ -3.586009448090401, 52.358099612238355 ], [ -3.635350668149486, 52.369982962261986 ], [ -3.647741541619915, 52.361759956793605 ] ], [ [ -3.341186519398816, 52.437555008857885 ], [ -3.330065103601202, 52.437533056452054 ], [ -3.333494147582965, 52.440038965285801 ], [ -3.341186519398816, 52.437555008857885 ] ], [ [ -3.257797734302612, 52.384720832379983 ], [ -3.255026887612097, 52.382256052265163 ], [ -3.254124065438066, 52.38203615428634 ], [ -3.257797734302612, 52.384720832379983 ] ], [ [ -3.2648073160577, 52.462218742962222 ], [ -3.230732537516497, 52.453160302389477 ], [ -3.261516417549679, 52.463281412409096 ], [ -3.2648073160577, 52.462218742962222 ] ] ] } },
{ "type": "Feature", "properties": { "bus": "Feckenham", "gen_view_gCO2_per_kWh": 246.307, "dominant_carrier": "waste_to_energy" }, "geometry": { "type": "Polygon", "coordinates": [ [ [ -2.539595893593989, 52.731046314470227 ], [ -1.716124896689764, 52.901448961645684 ], [ -1.273080588337283, 52.218228001198973 ], [ -1.305869913995598, 52.090333702491527 ], [ -1.321247895521829, 52.087014291694075 ], [ -1.305902815755147, 52.09020536964605 ], [ -1.352785567063588, 51.907339864498269 ], [ -1.566525138354895, 51.698797789053444 ], [ -3.029333995853793, 52.142270158023997 ], [ -2.539595893593989, 52.731046314470227 ] ], [ [ -1.783440151301805, 52.631875640785807 ], [ -1.780474171237615, 52.638987026411876 ], [ -1.782920335493126, 52.638090732636002 ], [ -1.783440151301805, 52.631875640785807 ] ], [ [ -1.765376365546304, 52.562221712504915 ], [ -1.787261653040483, 52.586184486506554 ], [ -1.787459205551373, 52.583822482543049 ], [ -1.765376365546304, 52.562221712504915 ] ], [ [ -1.358366515676886, 51.977017101515507 ], [ -1.359536370464284, 51.984990940575287 ], [ -1.409857935737519, 51.972598141509081 ], [ -1.358366515676886, 51.977017101515507 ] ] ] } },
{ "type": "Feature", "properties": { "bus": "Daines", "gen_view_gCO2_per_kWh": 143.883, "dominant_carrier": "nuclear" }, "geometry": { "type": "Polygon", "coordinates": [ [ [ -2.632249730270992, 53.327282423022652 ], [ -1.925956560540463, 54.174732222367403 ], [ -1.887371378426264, 54.162543130813759 ], [ -1.775986974498962, 53.330736468202332 ], [ -1.801150074869267, 53.318571523830244 ], [ -1.818002564864003, 53.346913963882393 ], [ -1.809662124885585, 53.312355243819916 ], [ -1.775904691654931, 53.330121988836467 ], [ -1.718667186286001, 52.902678499021391 ], [ -2.539595893593989, 52.731046314470227 ], [ -2.632249730270992, 53.327282423022652 ] ], [ [ -2.04245133469977, 53.848618104815316 ], [ -2.044082853592492, 53.849887896139364 ], [ -2.0456927947212, 53.828956734779581 ], [ -2.04245133469977, 53.848618104815316 ] ], [ [ -1.980986240268668, 53.225821858179671 ], [ -1.944600049147004, 53.236697005504858 ], [ -1.978134605169912, 53.232423583691897 ], [ -1.980986240268668, 53.225821858179671 ] ], [ [ -1.962461065155933, 53.226202833679473 ], [ -1.9859194731729, 53.214401094865373 ], [ -1.997093605234174, 53.18853223361517 ], [ -1.962461065155933, 53.226202833679473 ] ], [ [ -2.436275090657654, 52.976477288791237 ], [ -2.381021925898497, 52.998155003305889 ], [ -2.438251425984394, 52.985387543287388 ], [ -2.436275090657654, 52.976477288791237 ] ], [ [ -2.246386490071326, 53.163717513709486 ], [ -2.246013864065477, 53.166195379453967 ], [ -2.250686075578118, 53.165707173595443 ], [ -2.246386490071326, 53.163717513709486 ] ], [ [ -2.208656215513347, 53.177452913613017 ], [ -2.219241011399359, 53.192260881705842 ], [ -2.217356055532033, 53.169189873598924 ], [ -2.170011525452174, 53.190200953632619 ], [ -2.208656215513347, 53.177452913613017 ] ], [ [ -2.44943067760042, 53.412313148269469 ], [ -2.450865585620287, 53.413155964061048 ], [ -2.488701815688412, 53.393027194027916 ], [ -2.44943067760042, 53.412313148269469 ] ], [ [ -2.388171035574311, 53.370786523977934 ], [ -2.375163276885721, 53.368691022492172 ], [ -2.435674524879886, 53.404233255632697 ], [ -2.388171035574311, 53.370786523977934 ] ], [ [ -2.32572179550093, 53.360726183953886 ], [ -2.32438505729773, 53.361709775187578 ], [ -2.337116604878362, 53.362561845311987 ], [ -2.32572179550093, 53.360726183953886 ] ], [ [ -2.303155408018742, 53.37733085706823 ], [ -2.309006775455978, 53.386650023999351 ], [ -2.31965319175182, 53.365191550047342 ], [ -2.303155408018742, 53.37733085706823 ] ], [ [ -2.222624147618101, 53.196993837704255 ], [ -2.224567625513652, 53.199712733654309 ], [ -2.305096875591555, 53.229006213713859 ], [ -2.222624147618101, 53.196993837704255 ] ] ] } },
{ "type": "Feature", "properties": { "bus": "Th. Marsh/Stocksbridge", "gen_view_gCO2_per_kWh": 160.081, "dominant_carrier": "waste_to_energy" }, "geometry": { "type": "Polygon", "coordinates": [ [ [ -1.038470744212409, 53.482006153688161 ], [ -1.031011068016518, 53.281648855544404 ], [ -1.716124896689764, 52.901448961645684 ], [ -1.775904691654931, 53.330121988836467 ], [ -1.760640524800952, 53.338155613861574 ], [ -1.775986974498962, 53.330736468202332 ], [ -1.887371378426264, 54.162543130813759 ], [ -1.689423493312759, 54.198340221575393 ], [ -1.038470744212409, 53.482006153688161 ] ], [ [ -1.624955706317578, 53.317504388807947 ], [ -1.626232448385876, 53.318038586749722 ], [ -1.628219054658756, 53.316482713811183 ], [ -1.624955706317578, 53.317504388807947 ] ], [ [ -1.529398584544517, 53.310849373792472 ], [ -1.592838074627478, 53.304066143786052 ], [ -1.52816075196566, 53.309630122868001 ], [ -1.529398584544517, 53.310849373792472 ] ], [ [ -1.413806034399116, 53.318518603795894 ], [ -1.411091784373731, 53.34180581383675 ], [ -1.414900384398624, 53.320400693799336 ], [ -1.467110824487241, 53.292567413754753 ], [ -1.413806034399116, 53.318518603795894 ] ], [ [ -1.305567281805731, 53.333072110869026 ], [ -1.305969704257301, 53.333745833813268 ], [ -1.411091784373731, 53.34180581383675 ], [ -1.305567281805731, 53.333072110869026 ] ], [ [ -1.247762479165549, 53.302231834994643 ], [ -1.291369034263663, 53.309301853768993 ], [ -1.254130134227307, 53.301942073752841 ], [ -1.247762479165549, 53.302231834994643 ] ], [ [ -1.149019754070432, 53.338362073807573 ], [ -1.200592484162847, 53.304378313752508 ], [ -1.143120547209308, 53.33678043809622 ], [ -1.149019754070432, 53.338362073807573 ] ], [ [ -1.070584331913992, 53.33226276766581 ], [ -1.091762137673725, 53.328373086911533 ], [ -1.084171424007785, 53.32632448378088 ], [ -1.070584331913992, 53.33226276766581 ] ] ] } },
{ "type": "Feature", "properties": { "bus": "Neilston", "gen_view_gCO2_per_kWh": 49.219, "dominant_carrier": "wind_onshore" }, "geometry": { "type": "MultiPolygon", "coordinates": [ [ [ [ -6.877023124647645, 56.467911071153914 ], [ -6.889909361163091, 56.441052460741332 ], [ -6.988088081356334, 56.449979060776997 ], [ -6.991422750119003, 56.45974906543551 ], [ -6.877023124647645, 56.467911071153914 ] ] ], [ [ [ -6.371592827690418, 56.503971722199779 ], [ -6.481047720346274, 56.453979910696141 ], [ -6.477624110334777, 56.464678700717826 ], [ -6.417575267915733, 56.50069103890646 ], [ -6.371592827690418, 56.503971722199779 ] ] ], [ [ [ -5.074150161760898, 56.596539634147085 ], [ -4.197723521989015, 56.252109534689808 ], [ -4.118009144230033, 56.069146715022072 ], [ -4.246626714387769, 54.815524114747312 ], [ -4.404722547427864, 54.888275647137455 ], [ -4.426113257474691, 54.871202557106685 ], [ -4.404659597465534, 54.830905357023056 ], [ -4.334019927369613, 54.799155066949133 ], [ -4.352292697411144, 54.782124756918009 ], [ -4.342967117446725, 54.705955666765234 ], [ -4.393998797552906, 54.673075916707404 ], [ -4.521188697739715, 54.709305856797997 ], [ -4.577459477816703, 54.735158366857782 ], [ -4.603957777837739, 54.770950626933143 ], [ -4.841945398184166, 54.859809047146541 ], [ -4.948263268397106, 54.811258857064587 ], [ -4.89595189837533, 54.704068496841629 ], [ -4.859165588326298, 54.682686686793481 ], [ -4.869536178368756, 54.64404357671755 ], [ -4.844112368330921, 54.635718526697289 ], [ -4.920118788458778, 54.638006076712564 ], [ -4.97185537853106, 54.663331686770633 ], [ -4.982093338533816, 54.686654166818904 ], [ -4.962049748489709, 54.702013576846923 ], [ -5.009946338528258, 54.771468976993454 ], [ -5.146768378716337, 54.850567097172899 ], [ -5.194750288751265, 54.930779247342265 ], [ -5.169200838658845, 55.009516857497985 ], [ -5.100050968529648, 55.02285606751451 ], [ -5.050234698476529, 54.967481087394901 ], [ -5.054369598507958, 54.927993137315696 ], [ -5.001132028422589, 54.916680617284896 ], [ -5.06764889847074, 55.026660807517253 ], [ -5.003620778289926, 55.140488077737828 ], [ -4.872739948010276, 55.225925517889891 ], [ -4.843022097923333, 55.284158858002918 ], [ -4.851525007913377, 55.325075248087153 ], [ -4.779825687765729, 55.363341348152694 ], [ -4.77299329772942, 55.403843818233533 ], [ -4.736686547651255, 55.429038248278381 ], [ -4.654368617498876, 55.445620738297833 ], [ -4.627555487421638, 55.496732588396533 ], [ -4.69440420750798, 55.545461808506737 ], [ -4.663992837448741, 55.55633305852345 ], [ -4.688745667468421, 55.595276018606597 ], [ -4.846200357717091, 55.640163908725469 ], [ -4.873000297740281, 55.681382858814004 ], [ -4.930082847829012, 55.702309228866703 ], [ -5.038223578011311, 55.719394178920709 ], [ -5.101762058095395, 55.771606539038551 ], [ -5.165387138207929, 55.774635729056051 ], [ -5.173605218206997, 55.802909769115324 ], [ -5.140979088125133, 55.844582759194672 ], [ -5.205174028253396, 55.821927809159838 ], [ -5.296321478407609, 55.841703979216632 ], [ -5.328688468475838, 55.824469399187031 ], [ -5.314295848481507, 55.766338319065355 ], [ -5.391135968632658, 55.745338849035726 ], [ -5.42901675871675, 55.717728868985631 ], [ -5.472738328837838, 55.642089538837844 ], [ -5.453087208838991, 55.575031658696936 ], [ -5.48161304889194, 55.573104758697774 ], [ -5.506330348985061, 55.48609207852337 ], [ -5.537791619053999, 55.464997698485242 ], [ -5.511391749060794, 55.366993228280073 ], [ -5.564773049189377, 55.310371848172515 ], [ -5.534897979150994, 55.282488008110697 ], [ -5.581480579242275, 55.270220298092887 ], [ -5.616423839288404, 55.301042588161529 ], [ -5.761081349562091, 55.283593838148271 ], [ -5.813409999644221, 55.308857308208275 ], [ -5.803784319580359, 55.393422428380802 ], [ -5.728372919419131, 55.434724508453861 ], [ -5.724941209335615, 55.577265438746693 ], [ -5.673055689190753, 55.668879558926783 ], [ -5.715953319264847, 55.67854236895387 ], [ -5.755825339369121, 55.621285838842532 ], [ -5.783136909390159, 55.67702376896198 ], [ -5.728280859253192, 55.743624129090115 ], [ -5.678762739168081, 55.731171889056029 ], [ -5.72086822925819, 55.708201459015825 ], [ -5.718535899262374, 55.692180638982414 ], [ -5.682672959198519, 55.687573748966877 ], [ -5.61040457903888, 55.73684263905605 ], [ -5.627578019048428, 55.778366929144511 ], [ -5.676012399124262, 55.80437553920644 ], [ -5.66553262907678, 55.857736919314597 ], [ -5.718436509149961, 55.905981319423333 ], [ -5.749832179208753, 55.905489249427823 ], [ -5.722097239143477, 55.931687559476998 ], [ -5.754903489197416, 55.94585415951201 ], [ -5.71783398912206, 55.957774209530086 ], [ -5.646607088942961, 56.047713439702925 ], [ -5.668199958969479, 56.074556019762191 ], [ -5.618161018879087, 56.068891429741427 ], [ -5.604237738845763, 56.08330926976862 ], [ -5.650687058914023, 56.119141559850945 ], [ -5.700952589021911, 56.091788959803637 ], [ -5.828320519326413, 55.962458019559215 ], [ -5.866627649436697, 55.887220209410302 ], [ -5.958070829657768, 55.790866239226546 ], [ -6.040048239821052, 55.7734845792043 ], [ -6.009660549816023, 55.671593438988246 ], [ -6.037212339878493, 55.650855638949835 ], [ -6.140164480093619, 55.60960886888104 ], [ -6.188202920181911, 55.614507788898891 ], [ -6.262644910343028, 55.575009918828769 ], [ -6.300611640415032, 55.575194288835135 ], [ -6.345365860494403, 55.586728298866142 ], [ -6.347100620485017, 55.612080058919148 ], [ -6.269664170310286, 55.666402049019702 ], [ -6.299966560349492, 55.703495089101665 ], [ -6.34634383043259, 55.714583349132198 ], [ -6.342345160413686, 55.737372869178955 ], [ -6.365509020457754, 55.737969129183959 ], [ -6.477599310707022, 55.668454139057083 ], [ -6.523022400793242, 55.670927699069395 ], [ -6.539552820812796, 55.696302079124941 ], [ -6.464407020629989, 55.774457389275895 ], [ -6.494212210679173, 55.791667649316594 ], [ -6.466173670615139, 55.812218859354921 ], [ -6.460153160583516, 55.85376782944055 ], [ -6.399156060462089, 55.86158807944684 ], [ -6.335550410318291, 55.905801739528407 ], [ -6.316581420296043, 55.876594869464441 ], [ -6.283910770231532, 55.880392599466909 ], [ -6.163891439969636, 55.946392099583861 ], [ -6.119553929888606, 55.939311299561638 ], [ -6.111507569884714, 55.916258719512399 ], [ -6.082522829833765, 55.907953039490238 ], [ -6.012845869678846, 55.953594799572947 ], [ -6.008208649652191, 55.989412949646386 ], [ -5.960868699539016, 56.03658622973586 ], [ -5.758149149108881, 56.131922309896872 ], [ -5.735486419020406, 56.223502520081858 ], [ -5.774129589089314, 56.231337220105125 ], [ -5.813254469174337, 56.208778930065719 ], [ -5.822025089184141, 56.222466490095627 ], [ -5.773922649079516, 56.250326640144351 ], [ -5.719120988977694, 56.247434980128254 ], [ -5.662779848861978, 56.267177010158498 ], [ -5.676953138863177, 56.318267930266551 ], [ -5.567696578643665, 56.347442760305995 ], [ -5.57568049864606, 56.372615110359355 ], [ -5.619705738734099, 56.36161372034509 ], [ -5.626053298741558, 56.370615010364844 ], [ -5.453400028375729, 56.45633780050796 ], [ -5.470824788398829, 56.475285000550315 ], [ -5.548789888547403, 56.470012040554721 ], [ -5.633060868720853, 56.439361410507885 ], [ -5.702046478890912, 56.357790600352828 ], [ -5.83367850916585, 56.304630440267644 ], [ -5.891316919269851, 56.315841410301516 ], [ -5.873692399227426, 56.334236940336318 ], [ -5.893686089261071, 56.343311990358799 ], [ -5.930458409343586, 56.317483840312143 ], [ -6.043375759573285, 56.28846151027269 ], [ -6.222251039922375, 56.278001130283258 ], [ -6.345988250177414, 56.245129630236853 ], [ -6.365698530203788, 56.270902170294022 ], [ -6.423109160306397, 56.291014210346056 ], [ -6.467266880396387, 56.282863190336826 ], [ -6.446677360334533, 56.33028878043207 ], [ -6.472298960375544, 56.350474400478753 ], [ -6.423956370283629, 56.344547180457816 ], [ -6.374101480180498, 56.357221670475298 ], [ -6.263986209974993, 56.338396500416323 ], [ -6.227687599899451, 56.349586720433088 ], [ -6.211389449850319, 56.387435890508769 ], [ -6.164572319748881, 56.410786450548713 ], [ -6.196175779790439, 56.4532410206427 ], [ -6.26182809992371, 56.440617870628515 ], [ -6.316711720018444, 56.4673205806941 ], [ -6.300689826194509, 56.509030398757879 ], [ -5.074150161760898, 56.596539634147085 ] ], [ [ -4.128154423883013, 56.00947425135125 ], [ -4.136752177834158, 56.008963684524751 ], [ -4.134096726269581, 56.006853249334 ], [ -4.128154423883013, 56.00947425135125 ] ], [ [ -4.673440107192387, 56.02356666947248 ], [ -4.698838347208208, 56.074695799581214 ], [ -4.701467524443477, 56.076103288273444 ], [ -4.673440107192387, 56.02356666947248 ] ], [ [ -4.727210870941489, 56.089884584037648 ], [ -4.818332377384411, 56.138665049734392 ], [ -4.820133854756168, 56.136649990628975 ], [ -4.727210870941489, 56.089884584037648 ] ] ], [ [ [ -5.152751338238567, 55.679511408859433 ], [ -5.121100758220143, 55.612147268716399 ], [ -5.144799068278048, 55.584787008664648 ], [ -5.102088428208109, 55.573895858635112 ], [ -5.052251488152347, 55.51703447851073 ], [ -5.084235898220862, 55.496677238474703 ], [ -5.074365158227304, 55.45544087838902 ], [ -5.112706598315097, 55.421343308326001 ], [ -5.15166198837545, 55.436537618363424 ], [ -5.253072348557206, 55.43498309837706 ], [ -5.322816418666366, 55.462871448445583 ], [ -5.363204258714991, 55.505545478539588 ], [ -5.35680360866918, 55.566619278663538 ], [ -5.405721798730204, 55.616176038773318 ], [ -5.375186908640941, 55.677429928893716 ], [ -5.270443588424798, 55.725236888973477 ], [ -5.152751338238567, 55.679511408859433 ] ] ], [ [ [ -6.229063030071603, 55.992881389691597 ], [ -6.284720980178129, 55.993574229702517 ], [ -6.286795340160897, 56.037698829794692 ], [ -6.251883440070245, 56.086626779890501 ], [ -6.146705989844334, 56.136322809975432 ], [ -6.127414359816076, 56.118284579934574 ], [ -6.229063030071603, 55.992881389691597 ] ] ] ] } },
{ "type": "Feature", "properties": { "bus": "Penwortham", "gen_view_gCO2_per_kWh": 6.071, "dominant_carrier": "nuclear" }, "geometry": { "type": "Polygon", "coordinates": [ [ [ -1.925956560540463, 54.174732222367403 ], [ -2.632249730270992, 53.327282423022652 ], [ -3.059187506814817, 53.629695396901184 ], [ -3.020539936179108, 53.680266064613001 ], [ -2.961664456077234, 53.702451074648074 ], [ -2.93294812601468, 53.729024654694634 ], [ -3.022581596135913, 53.736582774718741 ], [ -3.061768686171583, 53.761622014770126 ], [ -3.057287476036318, 53.921109675070184 ], [ -2.927904415823425, 53.954577345117784 ], [ -2.888943715772963, 53.948225905101125 ], [ -2.87849559572747, 53.985953695170977 ], [ -2.930836685763595, 54.033991725268187 ], [ -2.883640435660741, 54.07776354534505 ], [ -2.826280975566921, 54.092465475365586 ], [ -2.814246665528356, 54.119019505414244 ], [ -2.867783265572561, 54.15940139549766 ], [ -2.870955565549099, 54.194510535564689 ], [ -2.902522955600984, 54.186437645553553 ], [ -2.925336885664208, 54.148330555484172 ], [ -2.969238365733148, 54.141395955476675 ], [ -3.003234075774587, 54.151292715499864 ], [ -3.041194505795554, 54.194789575587656 ], [ -3.097777395939165, 54.117296705447359 ], [ -3.155960896052708, 54.08125864538615 ], [ -3.144643126052006, 54.061077605346298 ], [ -3.179911706096429, 54.070354785368416 ], [ -3.195371176098117, 54.097209815421536 ], [ -3.229813696153706, 54.09106017541415 ], [ -3.26809952615051, 54.168172525566469 ], [ -3.224361986077097, 54.179176185581838 ], [ -3.208667506008624, 54.237599895691638 ], [ -3.24490243607972, 54.215190775653511 ], [ -3.249019886106848, 54.187987355601912 ], [ -3.329675316225901, 54.189439765615255 ], [ -3.404671761263379, 54.2608089191665 ], [ -2.232787606438829, 54.431311682732868 ], [ -1.925956560540463, 54.174732222367403 ] ], [ [ -2.259527144649827, 54.247052955582149 ], [ -2.197797944565687, 54.247377635574395 ], [ -2.314168134718414, 54.254380585603286 ], [ -2.259527144649827, 54.247052955582149 ] ], [ [ -2.254901704658073, 54.229587135548826 ], [ -2.257515835154503, 54.239458181952131 ], [ -2.289252214725719, 54.204578725506565 ], [ -2.254901704658073, 54.229587135548826 ] ], [ [ -2.120139434577903, 54.109043955306177 ], [ -2.16097627235622, 54.122938967478952 ], [ -2.105778226849955, 54.087808802028519 ], [ -2.120139434577903, 54.109043955306177 ] ], [ [ -2.103025874576645, 54.083739045256976 ], [ -2.104273236392329, 54.085583452764389 ], [ -2.156191384688146, 54.036171715175406 ], [ -2.103025874576645, 54.083739045256976 ] ], [ [ -2.151275043176411, 54.229458835665895 ], [ -2.140465714506803, 54.225295505525423 ], [ -2.100035544446881, 54.231968405532427 ], [ -2.151275043176411, 54.229458835665895 ] ], [ [ -2.045781984416848, 54.181879445431896 ], [ -1.969749052093855, 54.154487498797991 ], [ -1.972344164340058, 54.157888785377686 ], [ -2.045781984416848, 54.181879445431896 ] ] ] } },
{ "type": "Feature", "properties": { "bus": "Harker", "gen_view_gCO2_per_kWh": 4.163, "dominant_carrier": "wind_onshore" }, "geometry": { "type": "Polygon", "coordinates": [ [ [ -3.163873683674866, 55.593757034759435 ], [ -2.693296473124065, 55.432167917053071 ], [ -2.263375059383766, 55.076052358658089 ], [ -2.232787606438829, 54.431311682732868 ], [ -3.404671761263379, 54.2608089191665 ], [ -3.425779246300741, 54.280895515803891 ], [ -3.432004756267385, 54.337652795914245 ], [ -3.64652777646771, 54.512137716282801 ], [ -3.592113126342955, 54.567572856383002 ], [ -3.582033786266743, 54.651171176544686 ], [ -3.515017586112979, 54.720043246669128 ], [ -3.44505471597581, 54.760029596736516 ], [ -3.445687865945713, 54.803078516820676 ], [ -3.37910399578011, 54.890177546980439 ], [ -3.340528195710686, 54.903961767001171 ], [ -3.298720025657333, 54.888816796964917 ], [ -3.270000215607182, 54.897265276976782 ], [ -3.319520445665268, 54.922112357033271 ], [ -3.287200105599117, 54.944947147072646 ], [ -3.218349825483627, 54.958736677088311 ], [ -3.135158095374734, 54.934225137026992 ], [ -3.075126135276772, 54.943909237036024 ], [ -3.105434015315175, 54.954074897060771 ], [ -3.04157187518534, 54.999583847138759 ], [ -3.03012065113838, 55.025442037549844 ], [ -3.085331475271269, 54.972508217093342 ], [ -3.267815235557241, 54.961744567102308 ], [ -3.430863845795158, 54.981504667167613 ], [ -3.509622855932822, 54.960640357139489 ], [ -3.568707576010554, 54.98190451719087 ], [ -3.579881336060291, 54.936097617102625 ], [ -3.557028846046085, 54.905384487038638 ], [ -3.619777596184351, 54.849060766937995 ], [ -3.64870037621194, 54.87448209699248 ], [ -3.705355966298313, 54.878928527010174 ], [ -3.753313223247527, 54.854136888618122 ], [ -3.163873683674866, 55.593757034759435 ] ], [ [ -2.665516814461306, 55.221222577504463 ], [ -2.690576154522266, 55.188733527445926 ], [ -2.644691673699185, 55.2227351862539 ], [ -2.665516814461306, 55.221222577504463 ] ], [ [ -3.049594565156363, 55.055959447249855 ], [ -3.029661552161934, 55.026478736220781 ], [ -3.025149675133459, 55.036667077208214 ], [ -3.049594565156363, 55.055959447249855 ] ], [ [ -2.748326370510851, 55.161154080307988 ], [ -2.825301144758051, 55.139946417374851 ], [ -2.791398054707122, 55.140584577370227 ], [ -2.748326370510851, 55.161154080307988 ] ] ] } },
{ "type": "Feature", "properties": { "bus": "Strathaven", "gen_view_gCO2_per_kWh": 9.516, "dominant_carrier": "wind_onshore" }, "geometry": { "type": "Polygon", "coordinates": [ [ [ -3.753313223247527, 54.854136888618122 ], [ -3.833182026547508, 54.812848486899973 ], [ -3.980057716816344, 54.764319416826673 ], [ -4.086970896991864, 54.760082876834474 ], [ -4.158589687098077, 54.7750117968748 ], [ -4.246626714387769, 54.815524114747312 ], [ -4.118009144230033, 56.069146715022072 ], [ -3.171535708497719, 55.656215207960017 ], [ -3.163873683674866, 55.593757034759435 ], [ -3.753313223247527, 54.854136888618122 ] ] ] } },
{ "type": "Feature", "properties": { "bus": "Lovedean", "gen_view_gCO2_per_kWh": 177.551, "dominant_carrier": "wind_offshore" }, "geometry": { "type": "Polygon", "coordinates": [ [ [ -1.618493999276574, 51.129912980719624 ], [ -0.459999863249778, 51.07867242183292 ], [ -0.274292968593507, 50.820539479080757 ], [ -0.537773286184344, 50.797394039739217 ], [ -0.72203420638318, 50.76776629968505 ], [ -0.788562606501542, 50.717990079609905 ], [ -0.901377486546762, 50.768244559674287 ], [ -1.022117036645003, 50.781215879685575 ], [ -1.142948746773421, 50.769728249661803 ], [ -1.294071806853054, 50.829794319740962 ], [ -1.328226736930101, 50.791181089682546 ], [ -1.310474106931136, 50.774615459659323 ], [ -1.198382326862451, 50.738416929613173 ], [ -1.154085146813137, 50.744206779624193 ], [ -1.103348576786326, 50.725090819599728 ], [ -1.061676466791607, 50.685929469546139 ], [ -1.152980296922708, 50.647128299484606 ], [ -1.175738537002392, 50.596410699410676 ], [ -1.295617697147079, 50.570514639365548 ], [ -1.486914427232183, 50.662321559485555 ], [ -1.587380037336756, 50.659407689475387 ], [ -1.553472367276227, 50.683002579511793 ], [ -1.564042317266463, 50.701491059538206 ], [ -1.645556793098409, 50.722118735950183 ], [ -1.618493999276574, 51.129912980719624 ] ], [ [ -0.574210475404403, 50.825931823093747 ], [ -0.574468716201552, 50.827777043242136 ], [ -0.576520186182726, 50.827740799779761 ], [ -0.574210475404403, 50.825931823093747 ] ], [ [ -0.501578726108708, 50.834537429794224 ], [ -0.475461032507537, 50.891517797134632 ], [ -0.50684942347884, 50.834136269624274 ], [ -0.501578726108708, 50.834537429794224 ] ], [ [ -0.477073183958333, 50.893528604915367 ], [ -0.481631106014837, 50.899213619887533 ], [ -0.486765165709797, 50.892159597099941 ], [ -0.477073183958333, 50.893528604915367 ] ], [ [ -0.499433026030188, 50.899464109886807 ], [ -0.555213226099451, 50.882491199859196 ], [ -0.494882624731146, 50.891012993120839 ], [ -0.499433026030188, 50.899464109886807 ] ], [ [ -0.534823896044725, 50.913679559905063 ], [ -0.559421059485973, 50.944347895280366 ], [ -0.56701020603914, 50.942869979945115 ], [ -0.534823896044725, 50.913679559905063 ] ] ] } },
{ "type": "Feature", "properties": { "bus": "Sellindge", "gen_view_gCO2_per_kWh": 7.275, "dominant_carrier": "wind_offshore" }, "geometry": { "type": "Polygon", "coordinates": [ [ [ 1.041499912575368, 51.367588611070254 ], [ 1.115244615820043, 51.385733730667859 ], [ 1.272085845918461, 51.382069570671852 ], [ 1.422222206033602, 51.397696450702433 ], [ 1.447479396037316, 51.388479160691354 ], [ 1.42919805593869, 51.32106737059803 ], [ 1.370132965898896, 51.31857954059074 ], [ 1.414799455803859, 51.224187450465621 ], [ 1.397988805701836, 51.153875950369788 ], [ 1.333395475601967, 51.107617850302738 ], [ 1.22014281551317, 51.093557260274935 ], [ 1.197113395470746, 51.0720870602443 ], [ 1.076048215375911, 51.058886240216999 ], [ 1.00956455529143, 51.027138010168969 ], [ 0.970869985194873, 50.971977000091606 ], [ 0.979647155119593, 50.909138640008273 ], [ 0.781607265012881, 50.929635190019191 ], [ 0.651043934539155, 50.864351524066628 ], [ 1.041499912575368, 51.367588611070254 ] ] ] } },
{ "type": "Feature", "properties": { "bus": "Kemsley", "gen_view_gCO2_per_kWh": 255.76, "dominant_carrier": "CCGT" }, "geometry": { "type": "Polygon", "coordinates": [ [ [ 0.334486352469043, 51.548346199133064 ], [ 0.677388579989925, 51.889750864188208 ], [ 0.912950034216474, 51.760367728150449 ], [ 0.881076666111646, 51.751259521179335 ], [ 0.929935575414889, 51.751038347013939 ], [ 0.957273436143342, 51.731933241153435 ], [ 0.942179896025661, 51.645465621027938 ], [ 0.974312506018245, 51.620996660993946 ], [ 0.918512725926672, 51.579285190931927 ], [ 0.786702285753762, 51.516711530836837 ], [ 0.728449545721111, 51.525041060846419 ], [ 0.720346205695852, 51.509406550823634 ], [ 0.705898225706982, 51.52718992084862 ], [ 0.667333255684462, 51.532368040854557 ], [ 0.616115655617911, 51.509600130819656 ], [ 0.45837493548371, 51.499146780798441 ], [ 0.438563545419091, 51.458641310738898 ], [ 0.391199757687118, 51.446414023148549 ], [ 0.446925445424171, 51.457444680737503 ], [ 0.473366085483723, 51.489514130785011 ], [ 0.54451962554066, 51.491079570790063 ], [ 0.689837755635016, 51.478405650777823 ], [ 0.765143515650385, 51.445896170734677 ], [ 0.903578775719395, 51.421460680706694 ], [ 0.97298980567901, 51.350731480610989 ], [ 1.041499912575368, 51.367588611070254 ], [ 0.651043934539155, 50.864351524066628 ], [ 0.367763554569197, 50.812978449827533 ], [ 0.244330894374766, 50.731418289706603 ], [ 0.193754330297577, 50.741288939997531 ], [ 0.334486352469043, 51.548346199133064 ] ] ] } },
{ "type": "Feature", "properties": { "bus": "London", "gen_view_gCO2_per_kWh": 284.569, "dominant_carrier": "waste_to_energy" }, "geometry": { "type": "Polygon", "coordinates": [ [ [ -0.459999863249778, 51.07867242183292 ], [ -0.582579555953408, 51.508954650793399 ], [ -0.483881793280875, 51.625744212019853 ], [ -0.450718835163821, 51.609799170938281 ], [ -0.483248587664254, 51.626493487425201 ], [ -0.233462188372397, 51.922066995719348 ], [ 0.334486352469043, 51.548346199133064 ], [ 0.193754330297577, 50.741288939997531 ], [ -0.231556455890001, 50.82429366979796 ], [ -0.274292968593507, 50.820539479080757 ], [ -0.459999863249778, 51.07867242183292 ] ], [ [ -0.436677855221604, 51.547681320844184 ], [ -0.395257435189485, 51.542538830837259 ], [ -0.347538895126395, 51.559643520864213 ], [ -0.436677855221604, 51.547681320844184 ] ], [ [ -0.307443025120658, 51.53309665082508 ], [ -0.304671851520177, 51.533100699974007 ], [ -0.347538895126395, 51.559643520864213 ], [ -0.307443025120658, 51.53309665082508 ] ], [ [ -0.244251085018408, 51.57258930088603 ], [ -0.301034114936732, 51.533106015316626 ], [ -0.275301056816769, 51.53314361562596 ], [ -0.289392365101141, 51.535947280829788 ], [ -0.244251085018408, 51.57258930088603 ] ], [ [ 0.311867555332269, 51.469841860750307 ], [ 0.272938420530157, 51.459081911716126 ], [ 0.277452045289622, 51.457401000730869 ], [ 0.311867555332269, 51.469841860750307 ] ], [ [ -0.377659983396255, 51.435099270994321 ], [ -0.367254635279954, 51.441708020686285 ], [ -0.376125877016874, 51.444698181436152 ], [ -0.377659983396255, 51.435099270994321 ] ], [ [ -0.375282122949389, 51.449977554390735 ], [ -0.319406474387488, 51.458463528676909 ], [ -0.374191985268822, 51.45679855070869 ], [ -0.375282122949389, 51.449977554390735 ] ], [ [ -0.317226145215223, 51.458794660713266 ], [ -0.291220585159565, 51.486784250755917 ], [ -0.317806265567456, 51.458706556386637 ], [ -0.317226145215223, 51.458794660713266 ] ], [ [ -0.290647085205058, 51.447055320696499 ], [ -0.281302845160674, 51.47817005074333 ], [ -0.256247544629947, 51.473220003707191 ], [ -0.288131234616709, 51.485586050274954 ], [ -0.290647085205058, 51.447055320696499 ] ], [ [ -0.119730525088046, 51.41877203065993 ], [ -0.095285068586317, 51.422705789225546 ], [ -0.095384515062362, 51.422765320666677 ], [ -0.119730525088046, 51.41877203065993 ] ], [ [ 0.187423685187101, 51.432905910691694 ], [ 0.252825215244619, 51.436495210699448 ], [ 0.252392023109088, 51.437856649814073 ], [ 0.187423685187101, 51.432905910691694 ] ], [ [ 0.251665248704094, 51.440140761230957 ], [ 0.243074732001434, 51.467139094059647 ], [ 0.23663710524582, 51.448429080716224 ], [ 0.251665248704094, 51.440140761230957 ] ], [ [ -0.24418864511574, 51.488436990759695 ], [ -0.247577570925199, 51.527627635764205 ], [ -0.255045083630033, 51.474737375457856 ], [ -0.24418864511574, 51.488436990759695 ] ] ] } },
{ "type": "Feature", "properties": { "bus": "Bramley", "gen_view_gCO2_per_kWh": 376.123, "dominant_carrier": "CCGT" }, "geometry": { "type": "Polygon", "coordinates": [ [ [ -1.566525138354895, 51.698797789053444 ], [ -1.352785567063588, 51.907339864498269 ], [ -0.582579555953408, 51.508954650793399 ], [ -0.459999863249778, 51.07867242183292 ], [ -1.618493999276574, 51.129912980719624 ], [ -1.566525138354895, 51.698797789053444 ] ] ] } },
{ "type": "Feature", "properties": { "bus": "Pelham", "gen_view_gCO2_per_kWh": 229.286, "dominant_carrier": "CCGT" }, "geometry": { "type": "Polygon", "coordinates": [ [ [ -0.248915129124354, 52.405707689986158 ], [ 0.632634426389866, 52.310300515799199 ], [ 0.677388579989925, 51.889750864188208 ], [ 0.334486352469043, 51.548346199133064 ], [ -0.233462188372397, 51.922066995719348 ], [ -0.248915129124354, 52.405707689986158 ] ] ] } },
{ "type": "Feature", "properties": { "bus": "Sundon/East Claydon", "gen_view_gCO2_per_kWh": 238.905, "dominant_carrier": "CCGT" }, "geometry": { "type": "Polygon", "coordinates": [ [ [ -1.305902815755147, 52.09020536964605 ], [ -1.251751385431479, 52.101466401716294 ], [ -1.305869913995598, 52.090333702491527 ], [ -1.273080588337283, 52.218228001198973 ], [ -0.431319880650552, 52.613076643014907 ], [ -0.248915129124354, 52.405707689986158 ], [ -0.233462188372397, 51.922066995719348 ], [ -0.483248587664254, 51.626493487425201 ], [ -0.491501825178053, 51.630729060969593 ], [ -0.483881793280875, 51.625744212019853 ], [ -0.582579555953408, 51.508954650793399 ], [ -1.352785567063588, 51.907339864498269 ], [ -1.305902815755147, 52.09020536964605 ] ], [ [ -1.278311045550098, 52.015503391576807 ], [ -1.312891055549828, 52.051453041635895 ], [ -1.279329269710612, 52.00817486719189 ], [ -1.278311045550098, 52.015503391576807 ] ], [ [ -1.283209525257659, 51.980247276687948 ], [ -1.279822883637245, 52.004622150768213 ], [ -1.295904973675245, 52.000661580199242 ], [ -1.283209525257659, 51.980247276687948 ] ], [ [ -1.282866510533486, 51.979695708404755 ], [ -1.282650685592718, 51.979348661518252 ], [ -1.230583785520538, 51.994945931542794 ], [ -1.282866510533486, 51.979695708404755 ] ], [ [ -1.19732208550369, 51.977347271513871 ], [ -1.1965316958555, 51.977737546595037 ], [ -1.230583785520538, 51.994945931542794 ], [ -1.19732208550369, 51.977347271513871 ] ], [ [ -1.117427167054903, 52.015305290747243 ], [ -1.06520869162593, 52.009165631396058 ], [ -1.115056505375278, 52.016441341575891 ], [ -1.117427167054903, 52.015305290747243 ] ], [ [ -1.060771418250005, 52.008517973803009 ], [ -1.095218405417585, 51.957072941480021 ], [ -1.059633065325734, 52.008351821562101 ], [ -1.060771418250005, 52.008517973803009 ] ], [ [ -1.071951414765409, 51.841900586701648 ], [ -1.095814792159885, 51.839399650376265 ], [ -1.07260160552581, 51.834036551283241 ], [ -1.071951414765409, 51.841900586701648 ] ], [ [ -0.62224589530355, 51.628934440964898 ], [ -0.558237297455177, 51.667226393197616 ], [ -0.563623925203281, 51.668561301026635 ], [ -0.62224589530355, 51.628934440964898 ] ], [ [ -0.554518526862701, 51.666304811790766 ], [ -0.530407564613268, 51.657618728941259 ], [ -0.5309486851815, 51.660463761014604 ], [ -0.554518526862701, 51.666304811790766 ] ], [ [ -0.528595360481656, 51.648090762013844 ], [ -0.539218535214576, 51.638045310980068 ], [ -0.519654015237962, 51.601080140923777 ], [ -0.528595360481656, 51.648090762013844 ] ] ] } },
{ "type": "Feature", "properties": { "bus": "Ratcliffe", "gen_view_gCO2_per_kWh": 343.652, "dominant_carrier": "CCGT" }, "geometry": { "type": "Polygon", "coordinates": [ [ [ -1.716124896689764, 52.901448961645684 ], [ -1.031011068016518, 53.281648855544404 ], [ -0.400264653875374, 52.891833259424679 ], [ -0.431319880650552, 52.613076643014907 ], [ -1.273080588337283, 52.218228001198973 ], [ -1.716124896689764, 52.901448961645684 ] ] ] } },
{ "type": "Feature", "properties": { "bus": "Keadby", "gen_view_gCO2_per_kWh": 139.916, "dominant_carrier": "wind_offshore" }, "geometry": { "type": "Polygon", "coordinates": [ [ [ -0.400264653875374, 52.891833259424679 ], [ -1.031011068016518, 53.281648855544404 ], [ -1.038470744212409, 53.482006153688161 ], [ -0.258848258245001, 54.183411859641737 ], [ -0.233502042246714, 54.169355145172105 ], [ -0.07545658212153, 54.12596075507571 ], [ -0.076557092139663, 54.108640505045464 ], [ -0.16305400224409, 54.094844375031954 ], [ -0.195239802300532, 54.071949174995666 ], [ -0.196546442381665, 53.990549794852974 ], [ -0.121082792415739, 53.876363434644951 ], [ 0.120692297619645, 53.669730594263143 ], [ 0.150418317570818, 53.594179414131446 ], [ 0.105184167501125, 53.569695684093986 ], [ 0.13725299757302, 53.608747444157487 ], [ 0.038429037511872, 53.644266734227642 ], [ -0.053153222599677, 53.625102184203712 ], [ -0.103267672644649, 53.630846104218492 ], [ -0.282112792722567, 53.737296744420568 ], [ -0.506997622990853, 53.708861034394523 ], [ -0.514371003013195, 53.694286644369797 ], [ -0.285082852745477, 53.717464654386447 ], [ -0.206363412733248, 53.647850464257942 ], [ -0.090345682676474, 53.586741934141486 ], [ -0.054449442641846, 53.585129554135307 ], [ 0.027249897377789, 53.524833834024754 ], [ 0.088521527433713, 53.520464144011797 ], [ 0.091101637415103, 53.500120593977002 ], [ 0.103868000298135, 53.50557260926103 ], [ -0.400264653875374, 52.891833259424679 ] ], [ [ -0.777848293594062, 53.397681583878374 ], [ -0.783762990452782, 53.401972793814359 ], [ -0.780124896965026, 53.391744734633669 ], [ -0.777848293594062, 53.397681583878374 ] ], [ [ -0.747066493653211, 53.304212513713793 ], [ -0.749888039987605, 53.316038062807344 ], [ -0.750177261616205, 53.302177358481892 ], [ -0.747066493653211, 53.304212513713793 ] ], [ [ -0.73512871370055, 53.243941303608892 ], [ -0.771019966972779, 53.246509592201271 ], [ -0.770963743737272, 53.24621579361569 ], [ -0.73512871370055, 53.243941303608892 ] ] ] } },
{ "type": "Feature", "properties": { "bus": "Walpole", "gen_view_gCO2_per_kWh": 9.829, "dominant_carrier": "wind_offshore" }, "geometry": { "type": "Polygon", "coordinates": [ [ [ 0.632634426389866, 52.310300515799199 ], [ -0.248915129124354, 52.405707689986158 ], [ -0.431319880650552, 52.613076643014907 ], [ -0.400264653875374, 52.891833259424679 ], [ 0.113331367446736, 53.509614043991121 ], [ 0.160209277475374, 53.493326523959361 ], [ 0.251167417436528, 53.373646473750071 ], [ 0.363633657349074, 53.194099693442659 ], [ 0.347225647227162, 53.095594033281252 ], [ 0.161012626958932, 53.007136033147034 ], [ 0.050850296748984, 52.908932222991638 ], [ 0.180283116835501, 52.877189802932719 ], [ 0.222287236816172, 52.824363172844549 ], [ 0.353530016919241, 52.810324032815629 ], [ 0.436453187038592, 52.851448562878211 ], [ 0.481796647185637, 52.94778080303189 ], [ 0.527404057258817, 52.977564443077796 ], [ 0.618289397339001, 52.978523673074442 ], [ 0.669272847399433, 52.993372813095732 ], [ 0.803982007498845, 52.980484373067888 ], [ 0.981618167650282, 52.985498663066906 ], [ 1.094695138731757, 52.968881393059817 ], [ 0.632634426389866, 52.310300515799199 ] ], [ [ -0.024475083625882, 52.630026742539883 ], [ -0.008947083607436, 52.633576962545028 ], [ -0.014990983586716, 52.657630942584255 ], [ -0.024475083625882, 52.630026742539883 ] ] ] } },
{ "type": "Feature", "properties": { "bus": "Thornton/Drax/Eggborough", "gen_view_gCO2_per_kWh": 315.045, "dominant_carrier": "CCGT" }, "geometry": { "type": "Polygon", "coordinates": [ [ [ -1.689423493312759, 54.198340221575393 ], [ -1.005849861677615, 54.600101850237643 ], [ -0.771347022484965, 54.561920305951233 ], [ -0.738532312472947, 54.532632435893063 ], [ -0.708910532433436, 54.538057605898501 ], [ -0.659585302406753, 54.504454965830291 ], [ -0.565081852317291, 54.483610015778773 ], [ -0.51550534229326, 54.448615125708521 ], [ -0.517566442321445, 54.4207425756587 ], [ -0.450582042280114, 54.384281415583764 ], [ -0.400534852305334, 54.298311565423141 ], [ -0.376255232286021, 54.290409935405769 ], [ -0.383240022311592, 54.271558495373121 ], [ -0.258683312227176, 54.217741045260986 ], [ -0.284701122268928, 54.203552595239273 ], [ -0.318616642293263, 54.216558705266742 ], [ -0.258848258245001, 54.183411859641737 ], [ -1.038470744212409, 53.482006153688161 ], [ -1.689423493312759, 54.198340221575393 ] ], [ [ -0.411803412394495, 54.217419535280506 ], [ -0.42409913015531, 54.21549481141794 ], [ -0.318616642293263, 54.216558705266742 ], [ -0.411803412394495, 54.217419535280506 ] ], [ [ -1.062920313479689, 53.853061584710339 ], [ -1.041661443468128, 53.838849754682514 ], [ -1.040371503372469, 53.839853250191013 ], [ -1.062920313479689, 53.853061584710339 ] ], [ [ -0.612881502503967, 54.072643132398397 ], [ -0.609697102751621, 54.073266745049253 ], [ -0.603424532724022, 54.094922995087011 ], [ -0.612881502503967, 54.072643132398397 ] ] ] } },
{ "type": "Feature", "properties": { "bus": "Bramford", "gen_view_gCO2_per_kWh": 178.791, "dominant_carrier": "wind_offshore" }, "geometry": { "type": "MultiPolygon", "coordinates": [ [ [ [ 0.929935575414889, 51.751038347013939 ], [ 0.931688656148341, 51.751030411180452 ], [ 0.936531878585821, 51.747415299290282 ], [ 0.929935575414889, 51.751038347013939 ] ] ], [ [ [ 0.677388579989925, 51.889750864188208 ], [ 0.632634426389866, 52.310300515799199 ], [ 1.094695138731757, 52.968881393059817 ], [ 1.30190101784558, 52.938431372977476 ], [ 1.439433857885253, 52.885620142889394 ], [ 1.662902177893794, 52.760991752689918 ], [ 1.711441517874623, 52.71801993262315 ], [ 1.751728247797928, 52.633021452493644 ], [ 1.742561417705683, 52.562567012387746 ], [ 1.768214477621661, 52.480773672265201 ], [ 1.731206587484163, 52.388878152128775 ], [ 1.640791007288976, 52.278671101965699 ], [ 1.590071107018227, 52.087921291685781 ], [ 1.480093716896316, 52.047797181625462 ], [ 1.323224806642321, 51.928158021448212 ], [ 1.299789126655894, 51.951876951482184 ], [ 1.279579706643466, 51.953000271483361 ], [ 1.303349156636375, 51.934219461456536 ], [ 1.264724546577073, 51.907722281417129 ], [ 1.297400096545527, 51.864541671355362 ], [ 1.218558746415942, 51.803671981265168 ], [ 1.117250636302089, 51.768469981211297 ], [ 1.043318236244962, 51.764374121203112 ], [ 0.993454786232791, 51.783372951229289 ], [ 0.912950034216474, 51.760367728150449 ], [ 0.677388579989925, 51.889750864188208 ] ] ] ] } },
{ "type": "Feature", "properties": { "bus": "Stella West", "gen_view_gCO2_per_kWh": 42.492, "dominant_carrier": "nuclear" }, "geometry": { "type": "Polygon", "coordinates": [ [ [ -2.232787606438829, 54.431311682732868 ], [ -2.263375059383766, 55.076052358658089 ], [ -1.64343067576605, 55.58091772997382 ], [ -1.611976842718726, 55.554127177946306 ], [ -1.628321072752255, 55.539386457921474 ], [ -1.568314202753782, 55.433574017708992 ], [ -1.600178442835633, 55.383824087620717 ], [ -1.59158985284299, 55.359878397573723 ], [ -1.530455072779962, 55.336414557517848 ], [ -1.561674552867548, 55.278582687414328 ], [ -1.49426387284369, 55.197121867248235 ], [ -1.515282482902462, 55.158696687179614 ], [ -1.401168532883125, 55.000544336862596 ], [ -1.349588882844908, 54.966631796790395 ], [ -1.352087362911363, 54.891112916649838 ], [ -1.295759142939474, 54.77333185642145 ], [ -1.170175852844882, 54.700326646266298 ], [ -1.189770602886482, 54.680421406232639 ], [ -1.156988492881091, 54.639865356152704 ], [ -1.135012232843397, 54.651963326171597 ], [ -1.104725122825991, 54.62921671612505 ], [ -1.005849861677615, 54.600101850237643 ], [ -1.689423493312759, 54.198340221575393 ], [ -1.887371378426264, 54.162543130813759 ], [ -1.925956560540463, 54.174732222367403 ], [ -2.232787606438829, 54.431311682732868 ] ] ] } },
{ "type": "Feature", "properties": { "bus": "Peterhead", "gen_view_gCO2_per_kWh": 24.573, "dominant_carrier": "wind_offshore" }, "geometry": { "type": "MultiPolygon", "coordinates": [ [ [ [ -2.90859076525528, 57.042244012734635 ], [ -3.125580453284837, 57.684889395194737 ], [ -3.030781273482474, 57.669103362380532 ], [ -2.857841803177567, 57.710449482414312 ], [ -2.538436932684128, 57.674058242256265 ], [ -2.391664582453565, 57.672954412213628 ], [ -2.298704632294097, 57.699126252238216 ], [ -2.189529402137661, 57.676842992164907 ], [ -2.119572882014834, 57.70442640219818 ], [ -1.999632571833674, 57.701837482159455 ], [ -1.984237531821158, 57.682843462118754 ], [ -1.926690751735142, 57.681540562099983 ], [ -1.815844341608591, 57.613718551939186 ], [ -1.760489101612772, 57.468075351645581 ], [ -1.966552932006537, 57.32110811142001 ], [ -2.02419470213068, 57.258329571314626 ], [ -2.070614832257789, 57.163870751144806 ], [ -2.043136902240899, 57.124432371061566 ], [ -2.194249732565416, 56.966836630795697 ], [ -2.209023932642892, 56.878772400628769 ], [ -2.313672812853001, 56.796194080494288 ], [ -2.339161073435373, 56.78593357719015 ], [ -2.90859076525528, 57.042244012734635 ] ] ], [ [ [ -3.175174649120862, 58.665901109170662 ], [ -3.149666533203742, 58.67101345435016 ], [ -3.11474976313177, 58.70037742439564 ], [ -3.082981653099313, 58.650560384291147 ], [ -3.017621472992771, 58.641636834254477 ], [ -3.06135760310177, 58.561456624114548 ], [ -3.124478453228883, 58.515464834045225 ], [ -3.113044243224775, 58.48129759397635 ], [ -3.040723433105109, 58.476185833945195 ], [ -3.101296893255905, 58.36889334375703 ], [ -3.173357473009622, 58.326242253094442 ], [ -3.175174649120862, 58.665901109170662 ] ] ], [ [ [ -3.177789591918952, 59.154675130989702 ], [ -3.140434152992765, 59.151541665256417 ], [ -3.078094382865635, 59.204434845335705 ], [ -3.02918237279013, 59.183247975280629 ], [ -2.970153182685919, 59.192960015279979 ], [ -2.905522762583594, 59.174408805224687 ], [ -2.938721342671381, 59.093667925084326 ], [ -2.859884492550795, 59.062769945001534 ], [ -2.812052242459051, 59.091451065039962 ], [ -2.791214702427592, 59.082934315017404 ], [ -2.798658562462314, 59.027839554916667 ], [ -2.829937662519936, 59.014838754902165 ], [ -2.888654512617217, 59.017988134926611 ], [ -2.902364472649211, 58.995995864889629 ], [ -2.880295842614415, 58.990298104871989 ], [ -2.908501912670815, 58.9683537048396 ], [ -2.796823712472294, 58.995907544856209 ], [ -2.784103562464048, 58.964403904793102 ], [ -2.829099332542198, 58.957125684793589 ], [ -2.818274362527904, 58.94792267477289 ], [ -2.704313512326327, 58.976677594790914 ], [ -2.702672522344772, 58.926032544695389 ], [ -2.657820632281402, 58.900635514633599 ], [ -2.687969472336288, 58.888558094620393 ], [ -2.741757132412966, 58.917932164692481 ], [ -2.787548922494309, 58.905550524683562 ], [ -2.871705062672709, 58.815775294540458 ], [ -2.916283042755907, 58.795781394516389 ], [ -2.91072172277325, 58.733567184396776 ], [ -2.960360652859942, 58.725697604396998 ], [ -3.028998972938983, 58.812100844581835 ], [ -3.175750667515856, 58.773568025728096 ], [ -3.177789591918952, 59.154675130989702 ] ] ], [ [ [ -2.938582802837488, 58.693081234328446 ], [ -2.913908022795328, 58.694953594324495 ], [ -2.902982242787477, 58.67108118427587 ], [ -2.922503752819804, 58.671838264283195 ], [ -2.938582802837488, 58.693081234328446 ] ] ], [ [ [ -3.06604681303266, 58.738956424454351 ], [ -3.053975433011658, 58.740250314453128 ], [ -3.073847523047189, 58.735891784450871 ], [ -3.06604681303266, 58.738956424454351 ] ] ], [ [ [ -2.575352282092564, 59.027243344844408 ], [ -2.576583812089977, 59.038373824865594 ], [ -2.561886982067361, 59.034711484853993 ], [ -2.575352282092564, 59.027243344844408 ] ] ], [ [ [ -2.524060351896304, 59.306190465345338 ], [ -2.539805451935544, 59.271951015287293 ], [ -2.421421281723724, 59.31750408533221 ], [ -2.364774321646394, 59.279641065243716 ], [ -2.47040935182023, 59.275513405271056 ], [ -2.510488401899496, 59.241051375220586 ], [ -2.504752771898219, 59.220529155180735 ], [ -2.553690671973053, 59.234633825222858 ], [ -2.58802631203648, 59.21733710520207 ], [ -2.62395122208879, 59.235332815247112 ], [ -2.663346112166265, 59.204356955202471 ], [ -2.630656992126144, 59.168888225126011 ], [ -2.573445922036032, 59.158091655087432 ], [ -2.593492432083379, 59.122541355027806 ], [ -2.531687691980763, 59.125023645012433 ], [ -2.53943127201511, 59.072059024916392 ], [ -2.609074082130725, 59.06928954493366 ], [ -2.63824975216517, 59.102986505005852 ], [ -2.644973902188064, 59.073994904953977 ], [ -2.692654702267109, 59.073796464968879 ], [ -2.697624292244455, 59.150682175113822 ], [ -2.83611008248916, 59.117149295095651 ], [ -2.811067432432874, 59.153224155155002 ], [ -2.870611272509971, 59.212321745284221 ], [ -2.914526222579033, 59.225679565323198 ], [ -2.887362872523672, 59.250304795360279 ], [ -2.94888885261561, 59.2827947754405 ], [ -2.983736432690332, 59.241864475375507 ], [ -3.078093782816755, 59.335303805579656 ], [ -3.004679342691253, 59.334773085555042 ], [ -2.982931432645816, 59.357356685589963 ], [ -2.9108552225211, 59.363063645577142 ], [ -2.875310612451165, 59.389354375614197 ], [ -2.85665075243444, 59.349302845534027 ], [ -2.892786702513485, 59.301380455456929 ], [ -2.810781602394409, 59.250852805336599 ], [ -2.750929002292521, 59.254868995324607 ], [ -2.6742690221733, 59.232684095258577 ], [ -2.607082372045849, 59.273824375312856 ], [ -2.621566482055459, 59.311054985386392 ], [ -2.584949631999366, 59.299321605352709 ], [ -2.524060351896304, 59.306190465345338 ] ] ], [ [ [ -2.449290761755592, 59.352805675406401 ], [ -2.439834781726477, 59.388364685468531 ], [ -2.372098931613527, 59.394587675457302 ], [ -2.365027341607157, 59.381215985430472 ], [ -2.402865551671539, 59.374079685429997 ], [ -2.393900541664709, 59.353894375389928 ], [ -2.449290761755592, 59.352805675406401 ] ] ], [ [ [ -1.647897040406335, 59.553957725497661 ], [ -1.600876220333766, 59.55533116548358 ], [ -1.603782420351319, 59.52183177542441 ], [ -1.656933990438116, 59.508120085418383 ], [ -1.647897040406335, 59.553957725497661 ] ] ], [ [ [ -2.062332890864242, 60.105256676626851 ], [ -2.127597640960905, 60.132728036698801 ], [ -2.066851180853166, 60.164447476732498 ], [ -2.031887050804673, 60.139528186676017 ], [ -2.062332890864242, 60.105256676626851 ] ] ], [ [ [ -0.765898508735822, 60.618558177013291 ], [ -0.765275238742972, 60.59006046696544 ], [ -0.801969868803072, 60.564501916937296 ], [ -0.868541818893167, 60.586304487000234 ], [ -0.85428873887805, 60.566731266961767 ], [ -0.890514978933081, 60.558184666961814 ], [ -0.93924928899355, 60.595655177043952 ], [ -0.976632589047841, 60.597333777061543 ], [ -1.029576379141286, 60.542021116989453 ], [ -1.020273589143995, 60.485121606889756 ], [ -1.065280029210293, 60.485353616907751 ], [ -1.129199409312179, 60.460865236891173 ], [ -1.090342759259635, 60.443553966846672 ], [ -1.034540109173722, 60.455438316845097 ], [ -1.10535786929575, 60.39709880677357 ], [ -0.988206069130008, 60.374742946690063 ], [ -0.904456449001955, 60.394031376690194 ], [ -0.849777578939391, 60.340592666578132 ], [ -0.911809129035197, 60.321522996569762 ], [ -0.92411107904395, 60.350596166624086 ], [ -0.988435159145796, 60.324948326605309 ], [ -1.070181309267547, 60.319571486627702 ], [ -1.055261859257923, 60.280335996554818 ], [ -1.082204059308288, 60.246896406507851 ], [ -1.145601679406552, 60.232872036507985 ], [ -1.179521239467878, 60.198988536462515 ], [ -1.098789719344979, 60.209082776449165 ], [ -1.000710459219497, 60.152976806315138 ], [ -1.000624679226005, 60.133244326281101 ], [ -1.058566479315465, 60.1195147462794 ], [ -1.072518139342847, 60.099169056249494 ], [ -1.161393849468169, 60.116531566313157 ], [ -1.208291379543952, 60.098342496299338 ], [ -1.163341569498263, 60.036558086175091 ], [ -1.220059809587584, 60.021742086170526 ], [ -1.150647919493834, 59.995298206098511 ], [ -1.205215159584218, 59.968134156071429 ], [ -1.257878519657024, 59.984113066118951 ], [ -1.261975979708752, 59.856201985896234 ], [ -1.318526679796912, 59.846079165899177 ], [ -1.400239389896173, 59.912017586045216 ], [ -1.359518849806386, 59.993077906172353 ], [ -1.386542049828901, 60.046631996276012 ], [ -1.360334789776216, 60.085556366334075 ], [ -1.38362172979159, 60.145691316447341 ], [ -1.474366059930099, 60.144248136478801 ], [ -1.697157290246524, 60.231649046713777 ], [ -1.712058150250555, 60.295030116829238 ], [ -1.76171420031578, 60.337680946921594 ], [ -1.730949980263828, 60.350130746931583 ], [ -1.667228120165112, 60.346955246902155 ], [ -1.643040370136883, 60.315140626838136 ], [ -1.598729080068888, 60.31252568681699 ], [ -1.519902649943929, 60.32341838680604 ], [ -1.479244489870444, 60.360318046854083 ], [ -1.45471084981903, 60.407210056925152 ], [ -1.475218889842117, 60.436012206982241 ], [ -1.569683569978082, 60.469981897076394 ], [ -1.642943820091594, 60.471130177106254 ], [ -1.623539650050855, 60.508968437163496 ], [ -1.579013899979018, 60.518552717162819 ], [ -1.609336180017254, 60.55105187722976 ], [ -1.487535799824133, 60.568040657211753 ], [ -1.43929088973495, 60.624144097288038 ], [ -1.363457279621699, 60.614170167241703 ], [ -1.316634189536708, 60.666224447311059 ], [ -1.292934519504343, 60.652723297279088 ], [ -1.295622839522199, 60.601252597193479 ], [ -1.222503379414644, 60.591338727148177 ], [ -1.145130309276612, 60.673430817255721 ], [ -1.126694339232087, 60.73859506735721 ], [ -0.979213599012632, 60.742304907304622 ], [ -0.965341038979273, 60.792887867382944 ], [ -0.906705898878903, 60.850524717454491 ], [ -0.766825658679194, 60.836682417375023 ], [ -0.753044298664546, 60.816056747335502 ], [ -0.792288678722659, 60.810118297341639 ], [ -0.780288828723015, 60.741820487223954 ], [ -0.858311688845767, 60.704785377193893 ], [ -0.826887628802515, 60.696121687166873 ], [ -0.827612248813451, 60.659651687106489 ], [ -0.866192518872034, 60.650005297105793 ], [ -0.811632008803987, 60.610429677017969 ], [ -0.765898508735822, 60.618558177013291 ] ] ], [ [ [ -0.819215618879149, 60.392486476654248 ], [ -0.817204028876118, 60.392917616654216 ], [ -0.817038898876021, 60.392467166653375 ], [ -0.819215618879149, 60.392486476654248 ] ] ], [ [ [ -0.803273668856609, 60.391196536645822 ], [ -0.853122578922399, 60.410937586698793 ], [ -0.869144978935257, 60.444988466762666 ], [ -0.838168898896992, 60.423415966714046 ], [ -0.764325568786954, 60.435992426706257 ], [ -0.720000718726504, 60.426438276672677 ], [ -0.803273668856609, 60.391196536645822 ] ] ], [ [ [ -0.890394078854164, 60.854177557453916 ], [ -0.887228468849282, 60.855228887454373 ], [ -0.887309628849974, 60.852895077450583 ], [ -0.890394078854164, 60.854177557453916 ] ] ], [ [ [ -0.876493868832177, 60.861092697459675 ], [ -0.869956058822629, 60.861154717457111 ], [ -0.873388388827946, 60.859881557456433 ], [ -0.876493868832177, 60.861092697459675 ] ] ] ] } },
{ "type": "Feature", "properties": { "bus": "Eccles", "gen_view_gCO2_per_kWh": 16.886, "dominant_carrier": "wind_onshore" }, "geometry": { "type": "Polygon", "coordinates": [ [ [ -2.693296473124065, 55.432167917053071 ], [ -2.253069649545228, 55.930702572285782 ], [ -2.131328973173106, 55.920568228754654 ], [ -2.11591434317395, 55.888330928689143 ], [ -2.067635643114007, 55.875212148653745 ], [ -1.94894607304723, 55.735589768360541 ], [ -1.8745523329703, 55.69855413827441 ], [ -1.775169082837762, 55.690967878239796 ], [ -1.772163062857453, 55.659332778178687 ], [ -1.788577885440772, 55.660935394174963 ], [ -1.761851212876131, 55.615876268093629 ], [ -1.67212674275019, 55.619627868082922 ], [ -1.631650992675841, 55.644694958122564 ], [ -1.599147532631541, 55.644850078116313 ], [ -1.65827911275125, 55.593564768030518 ], [ -1.64343067576605, 55.58091772997382 ], [ -2.263375059383766, 55.076052358658089 ], [ -2.693296473124065, 55.432167917053071 ] ], [ [ -1.875010623020859, 55.6319054081468 ], [ -1.79517037811672, 55.661579034041566 ], [ -1.806156032901999, 55.662651588191878 ], [ -1.875010623020859, 55.6319054081468 ] ] ] } },
{ "type": "Feature", "properties": { "bus": "Torness", "gen_view_gCO2_per_kWh": 6.664, "dominant_carrier": "nuclear" }, "geometry": { "type": "MultiPolygon", "coordinates": [ [ [ [ -2.90859076525528, 57.042244012734635 ], [ -2.339161073435373, 56.78593357719015 ], [ -2.414467803031834, 56.755618250439916 ], [ -2.4338532931057, 56.685673880308336 ], [ -2.497338013225105, 56.65042387025472 ], [ -2.472433583205779, 56.621018310191445 ], [ -2.533100633335115, 56.563866780094166 ], [ -2.705875323646032, 56.493928979997293 ], [ -2.726697973698761, 56.461917459939308 ], [ -2.798592773801746, 56.475866539983009 ], [ -2.985750274114496, 56.446512179967627 ], [ -3.049395802579198, 56.452327610744909 ], [ -2.980035520420692, 56.904420483085538 ], [ -2.90859076525528, 57.042244012734635 ] ] ], [ [ [ -2.693296473124065, 55.432167917053071 ], [ -3.163873683674866, 55.593757034759435 ], [ -3.171535708497719, 55.656215207960017 ], [ -3.123369385699983, 55.970165072957897 ], [ -3.08852266459359, 55.953869329018396 ], [ -3.016518084478525, 55.957411689010598 ], [ -2.909496834294086, 55.984490779041764 ], [ -2.893866004250194, 56.014029619096561 ], [ -2.86582436420431, 56.01778620909807 ], [ -2.871177854198184, 56.039417249141678 ], [ -2.817392284093813, 56.071429879193175 ], [ -2.715799133932171, 56.079829259188102 ], [ -2.666305573867118, 56.064245619147094 ], [ -2.635609933807414, 56.083560659178318 ], [ -2.552781963733366, 56.008196099013553 ], [ -2.440259043576039, 55.992038358958325 ], [ -2.325757043445096, 55.936753458826814 ], [ -2.253069649545228, 55.930702572285782 ], [ -2.693296473124065, 55.432167917053071 ] ] ], [ [ [ -3.054505974820149, 56.419019319968797 ], [ -2.923342994009925, 56.456055039972391 ], [ -2.807535613832224, 56.449864579934001 ], [ -2.821089273902572, 56.37284216978577 ], [ -2.794993973876849, 56.349691109734508 ], [ -2.65588535367966, 56.322517159650239 ], [ -2.58255609360115, 56.271487149534138 ], [ -2.678738113781568, 56.220849219456234 ], [ -2.806876464005249, 56.180781429405556 ], [ -2.871126824103073, 56.183549469424854 ], [ -2.910084794149359, 56.205649129476711 ], [ -2.966025074239218, 56.202036299481655 ], [ -3.098169837026881, 56.134416658812263 ], [ -3.054505974820149, 56.419019319968797 ] ] ], [ [ [ -2.557829053622664, 56.182835239355512 ], [ -2.561802963622276, 56.192403679375069 ], [ -2.544316333603564, 56.180811169348594 ], [ -2.557829053622664, 56.182835239355512 ] ] ] ] } },
{ "type": "Feature", "properties": { "bus": "Denny/Bonnybridge", "gen_view_gCO2_per_kWh": 99.977, "dominant_carrier": "wind_onshore" }, "geometry": { "type": "MultiPolygon", "coordinates": [ [ [ [ -3.049395802579198, 56.452327610744909 ], [ -3.193308855481289, 56.379826366346535 ], [ -3.054505974820149, 56.419019319968797 ], [ -3.098169837026881, 56.134416658812263 ], [ -3.139158654569382, 56.113442319343804 ], [ -3.168213214649342, 56.060965939246202 ], [ -3.275501394825552, 56.052579349251907 ], [ -3.272493864857686, 55.99524923913777 ], [ -3.175769674704376, 55.994669579116795 ], [ -3.123369385699983, 55.970165072957897 ], [ -3.171535708497719, 55.656215207960017 ], [ -4.118009144230033, 56.069146715022072 ], [ -4.197723521989015, 56.252109534689808 ], [ -2.980035520420692, 56.904420483085538 ], [ -3.049395802579198, 56.452327610744909 ] ] ], [ [ [ -3.128228934608914, 56.0258212291685 ], [ -3.1269639846065, 56.02646177916953 ], [ -3.126133164605827, 56.025480989167384 ], [ -3.128228934608914, 56.0258212291685 ] ] ], [ [ [ -3.12877307460837, 56.027972729172866 ], [ -3.137952014618593, 56.034537499187714 ], [ -3.134004114610928, 56.036730359191239 ], [ -3.12877307460837, 56.027972729172866 ] ] ] ] } },
{ "type": "Feature", "properties": { "bus": "Errochty", "gen_view_gCO2_per_kWh": 0.827, "dominant_carrier": "large_hydro" }, "geometry": { "type": "Polygon", "coordinates": [ [ [ -2.980035520420692, 56.904420483085538 ], [ -4.197723521989015, 56.252109534689808 ], [ -5.074150161760898, 56.596539634147085 ], [ -3.31065824673563, 57.728467150264727 ], [ -3.276962553861531, 57.728329382562265 ], [ -3.18104000371848, 57.694124562469682 ], [ -3.125580453284837, 57.684889395194737 ], [ -2.90859076525528, 57.042244012734635 ], [ -2.980035520420692, 56.904420483085538 ] ] ] } },
{ "type": "Feature", "properties": { "bus": "Beauly", "gen_view_gCO2_per_kWh": 36.985, "dominant_carrier": "wind_onshore" }, "geometry": { "type": "MultiPolygon", "coordinates": [ [ [ [ -3.175750667515856, 58.773568025728096 ], [ -3.292318623405269, 58.772810804587095 ], [ -3.378947353529586, 58.835324614732244 ], [ -3.389137573535574, 58.864378464790612 ], [ -3.443468943624591, 58.878559464834012 ], [ -3.419517683567233, 58.917684184901191 ], [ -3.340096053414717, 58.953725774945426 ], [ -3.374913493457875, 58.998055865040023 ], [ -3.348156453356423, 59.140949315301462 ], [ -3.22295463313238, 59.158463685295338 ], [ -3.177789591918952, 59.154675130989702 ], [ -3.175750667515856, 58.773568025728096 ] ] ], [ [ [ -3.173357473009622, 58.326242253094442 ], [ -3.214598993478315, 58.301832293660517 ], [ -3.383002993783785, 58.262321313632071 ], [ -3.509008664045625, 58.164473833477381 ], [ -3.796214894596521, 58.05457687334129 ], [ -3.842621424701389, 58.003990543254496 ], [ -3.978926114960324, 57.964834983213699 ], [ -4.005102575056436, 57.857357493008436 ], [ -4.071160235171357, 57.862701323036134 ], [ -4.122256465271653, 57.84291124301015 ], [ -4.048344255150284, 57.820716582947163 ], [ -3.963953814987205, 57.849571282982268 ], [ -3.867649514827701, 57.827951102914419 ], [ -3.784388724661468, 57.870876422977098 ], [ -3.772491314649715, 57.851875572936571 ], [ -3.969128455071415, 57.691419782670643 ], [ -4.026937435175601, 57.686965432676558 ], [ -3.986475615110107, 57.674568592641684 ], [ -4.093610035332864, 57.605378682531409 ], [ -4.084270825332931, 57.571055882460769 ], [ -4.161821435474535, 57.562773642463625 ], [ -4.225753245618848, 57.499800982353825 ], [ -4.169396455521179, 57.494394882329146 ], [ -4.152852335479484, 57.519672342375451 ], [ -4.049816015276659, 57.561523722433186 ], [ -4.081544485320978, 57.585744932489291 ], [ -4.016299465195607, 57.606528062514215 ], [ -3.931753035054826, 57.590381732460735 ], [ -3.853534744914752, 57.597078402454201 ], [ -3.710834254635714, 57.660074412542166 ], [ -3.537200604333596, 57.667081652510802 ], [ -3.504482114271047, 57.680359062528375 ], [ -3.499442124248422, 57.70833596258209 ], [ -3.31065824673563, 57.728467150264727 ], [ -5.074150161760898, 56.596539634147085 ], [ -6.300689826194509, 56.509030398757879 ], [ -6.296916289956513, 56.518854050797664 ], [ -6.3221824700024, 56.526539130818328 ], [ -6.371592827690418, 56.503971722199779 ], [ -6.417575267915733, 56.50069103890646 ], [ -6.305694459951659, 56.567787910901032 ], [ -6.328627239977921, 56.609553580992156 ], [ -6.239200239800943, 56.614282830985211 ], [ -6.233522019779852, 56.636629851030534 ], [ -6.131179099570178, 56.659662491058889 ], [ -6.044852979415336, 56.632176300985407 ], [ -6.01898401936034, 56.643095371003028 ], [ -6.000274719311325, 56.671252151057701 ], [ -6.064194619427136, 56.688498241105734 ], [ -6.188869259672242, 56.682448711117154 ], [ -6.226340959737083, 56.701101821163007 ], [ -6.233402289739121, 56.727677241219503 ], [ -6.189855979640401, 56.758392791274829 ], [ -5.989189639243189, 56.774056871268179 ], [ -5.967202579194444, 56.787805901292259 ], [ -5.900251759077626, 56.760520721222647 ], [ -5.887205239025068, 56.820772231344449 ], [ -5.802274418845145, 56.857043881402177 ], [ -5.864972648957148, 56.876164451454223 ], [ -5.902703039037857, 56.858636331425672 ], [ -5.942978879095254, 56.904395401528156 ], [ -5.871322048938216, 56.945664301598796 ], [ -5.825141588818578, 57.014003651730086 ], [ -5.727143888626756, 57.020823591723804 ], [ -5.662497618520244, 56.982196941631024 ], [ -5.685385548542123, 57.030774261735566 ], [ -5.749931378669209, 57.023872061734835 ], [ -5.804151608757238, 57.060936821822281 ], [ -5.727258318582698, 57.120255111928039 ], [ -5.667147468460183, 57.135767111947182 ], [ -5.753898018613362, 57.167357622030352 ], [ -5.895807648938188, 57.05287414182466 ], [ -6.023152359203018, 57.013645701769839 ], [ -6.045813879229552, 57.054581191858915 ], [ -6.011599429135203, 57.118494071983655 ], [ -5.92815703895136, 57.167475992067224 ], [ -5.996948529086807, 57.164728382075886 ], [ -6.017175509112031, 57.19852519214966 ], [ -6.095927679300503, 57.118164052000303 ], [ -6.119546569339261, 57.136168092042261 ], [ -6.118786009317969, 57.183225612139168 ], [ -6.155545659388894, 57.186754252153996 ], [ -6.199404489498287, 57.131990412049895 ], [ -6.251143299603839, 57.123984182043863 ], [ -6.268573099628844, 57.146806142094533 ], [ -6.331268679747926, 57.159618042133687 ], [ -6.292735029656979, 57.194739652198479 ], [ -6.347820349772052, 57.181052652181314 ], [ -6.405806579874199, 57.214093482261376 ], [ -6.532588970075087, 57.348684832565333 ], [ -6.572935530164573, 57.32774965253018 ], [ -6.62780559026908, 57.344125062575131 ], [ -6.67662827037304, 57.330896022557525 ], [ -6.743523470487901, 57.386105202685208 ], [ -6.750658900491405, 57.41539553274734 ], [ -6.795287470581235, 57.418600892762846 ], [ -6.790641820557574, 57.456689462840806 ], [ -6.75105081047457, 57.462556112845007 ], [ -6.756181780471672, 57.498590522920573 ], [ -6.733861350420697, 57.51321454294628 ], [ -6.708547860368287, 57.515341822945523 ], [ -6.688683450335042, 57.495936992901385 ], [ -6.657205040267601, 57.505043462913783 ], [ -6.637073480187112, 57.611527343129296 ], [ -6.507812859930754, 57.595304043068943 ], [ -6.511251139945953, 57.573385113024528 ], [ -6.539635459997078, 57.590267643065211 ], [ -6.561972050046467, 57.579271833047258 ], [ -6.559781740051584, 57.553769062994235 ], [ -6.452412709850699, 57.511417002884663 ], [ -6.377501009674036, 57.579109973008237 ], [ -6.402708339722897, 57.583958523023497 ], [ -6.439977739759574, 57.686231573241443 ], [ -6.379868249645945, 57.665722533186553 ], [ -6.361973369593547, 57.709256523272003 ], [ -6.328717719528016, 57.70544957325702 ], [ -6.295502179451373, 57.731679343303561 ], [ -6.285191209444514, 57.694968473226183 ], [ -6.218453229319662, 57.671714583164089 ], [ -6.129634839174964, 57.58824872297393 ], [ -6.123379079204105, 57.483357692757508 ], [ -6.167203419320573, 57.409625362615408 ], [ -6.090740389170595, 57.406249792592284 ], [ -5.989754908900291, 57.582237122931218 ], [ -5.962074458844274, 57.585782692932391 ], [ -5.946993538822466, 57.566100222888863 ], [ -5.976645908915876, 57.479455832717989 ], [ -6.023855599028426, 57.431335852629502 ], [ -5.98543989899372, 57.332237492417917 ], [ -5.888787508810252, 57.318697652369572 ], [ -5.877124988792522, 57.306803422342703 ], [ -5.914543958876553, 57.280732482297118 ], [ -5.853133408754597, 57.286000632294893 ], [ -5.814850928690519, 57.261741382236956 ], [ -5.749990888552706, 57.28978565228055 ], [ -5.661447938348806, 57.365845922416952 ], [ -5.832776938696897, 57.328589462377856 ], [ -5.865723578750991, 57.352566692434067 ], [ -5.819542848625624, 57.436878742596733 ], [ -5.859435178702689, 57.438853432609442 ], [ -5.880461338730007, 57.472282352682427 ], [ -5.849197408625799, 57.577391682890379 ], [ -5.813345798550775, 57.589254282906658 ], [ -5.75586481844804, 57.565912742846244 ], [ -5.709561008354974, 57.572892842850173 ], [ -5.750270678418989, 57.610201492935289 ], [ -5.802887338520503, 57.613399902953567 ], [ -5.826959968557734, 57.637916483008915 ], [ -5.796350648473961, 57.697149363122676 ], [ -5.737993228349612, 57.722410393160878 ], [ -5.830816908528471, 57.730102623197531 ], [ -5.822976918463258, 57.857063073453709 ], [ -5.665294148143913, 57.882554503468953 ], [ -5.620408998038338, 57.928175553550702 ], [ -5.55383482791279, 57.917552413513569 ], [ -5.511104867849949, 57.866980693401381 ], [ -5.483899197783801, 57.900535673462734 ], [ -5.404408697626488, 57.909629783462186 ], [ -5.414527937637621, 57.930567843506779 ], [ -5.38034451756879, 57.937733843513037 ], [ -5.361157237511552, 57.988378653610326 ], [ -5.394835707574678, 57.99307830362789 ], [ -5.441615587680186, 57.955152833562799 ], [ -5.518338887831199, 57.949445963569516 ], [ -5.533266897855668, 57.96098870359635 ], [ -5.51611045781086, 57.990185603651113 ], [ -5.470730567719004, 57.999676043659356 ], [ -5.481362377727132, 58.031639163726226 ], [ -5.443496617624693, 58.106104733866673 ], [ -5.361639787476716, 58.078932853792274 ], [ -5.310375407374493, 58.087371453796692 ], [ -5.35772586744987, 58.12840284389047 ], [ -5.321876327362681, 58.174660613974247 ], [ -5.410488817509457, 58.239945914126629 ], [ -5.376422187432953, 58.267341474172916 ], [ -5.348545437383453, 58.255242874141821 ], [ -5.26658215721851, 58.272179724155158 ], [ -5.171311817038386, 58.263671264114279 ], [ -5.167844377026184, 58.278074334142055 ], [ -5.217489957118734, 58.285655294169679 ], [ -5.185026777036238, 58.338240724266051 ], [ -5.21611007707966, 58.381926064360727 ], [ -5.159815856963132, 58.403468454389085 ], [ -5.145836646923533, 58.437415554452741 ], [ -5.095904036822176, 58.451908154468541 ], [ -5.146791136911506, 58.474721924526783 ], [ -5.12598745684513, 58.54629597466279 ], [ -5.056132196710931, 58.546076034644095 ], [ -4.992623036554483, 58.641052314814154 ], [ -4.967002036511794, 58.623641974773157 ], [ -4.866183966320385, 58.621478664742035 ], [ -4.815315996233915, 58.594384024675279 ], [ -4.766541416136704, 58.607571394688051 ], [ -4.731056916082572, 58.573473204611645 ], [ -4.654934515937943, 58.577421724598842 ], [ -4.628696265895304, 58.560291814558219 ], [ -4.585971445806727, 58.582877864590813 ], [ -4.542345685724851, 58.584079514581283 ], [ -4.398686645469952, 58.554134184483488 ], [ -4.332439525343325, 58.565640474487687 ], [ -4.251621135208874, 58.530871754397531 ], [ -4.15259070501267, 58.56974830444571 ], [ -4.074358444870766, 58.569597584423519 ], [ -4.023792154764725, 58.605905304479698 ], [ -3.996337034728561, 58.572872844407897 ], [ -3.9144873345833, 58.568526994376292 ], [ -3.785624924351548, 58.573074124348381 ], [ -3.657064044103138, 58.623512084408674 ], [ -3.538700143893992, 58.626634704380244 ], [ -3.526187333882409, 58.60214269432953 ], [ -3.459802433761001, 58.61571250433623 ], [ -3.371724913615123, 58.599743434279702 ], [ -3.357623983584818, 58.613695784302315 ], [ -3.421931223685596, 58.638504134368809 ], [ -3.40573517364552, 58.666977464418636 ], [ -3.366886093575258, 58.674068404420751 ], [ -3.30681647348222, 58.648950754354836 ], [ -3.175174649120862, 58.665901109170662 ], [ -3.173357473009622, 58.326242253094442 ] ] ], [ [ [ -6.991422750119003, 56.45974906543551 ], [ -7.006441741370842, 56.503752120892997 ], [ -6.957081221260066, 56.531057610941708 ], [ -6.874988981098523, 56.523014170910479 ], [ -6.776131650888826, 56.551034800951669 ], [ -6.537852390360022, 56.67887757117537 ], [ -6.428342580128396, 56.713607911227243 ], [ -6.51868423035555, 56.601438411010449 ], [ -6.628829090592382, 56.558378820940632 ], [ -6.669834660665741, 56.57725429098744 ], [ -6.702107460749724, 56.531173140896968 ], [ -6.808346960981593, 56.484273260817638 ], [ -6.869505531104188, 56.483579890826896 ], [ -6.877023124647645, 56.467911071153914 ], [ -6.991422750119003, 56.45974906543551 ] ] ], [ [ [ -7.574781842159433, 57.53775736316129 ], [ -7.611830452247347, 57.508832053107845 ], [ -7.695102462422735, 57.512159413130185 ], [ -7.739001452505407, 57.54487601320659 ], [ -7.574781842159433, 57.53775736316129 ] ] ], [ [ [ -7.126373411212973, 57.557394763116164 ], [ -7.180422601381654, 57.397462222794324 ], [ -7.207146481443696, 57.378994802760978 ], [ -7.211224811470147, 57.328697952656974 ], [ -7.185970661429343, 57.296729092585515 ], [ -7.252902521591932, 57.230709382460304 ], [ -7.247602111609641, 57.152117122295024 ], [ -7.204261341532966, 57.117285472214199 ], [ -7.221557801580887, 57.084377942148549 ], [ -7.270269701686351, 57.071279122130044 ], [ -7.348882141887217, 56.968186701928097 ], [ -7.399357641988935, 56.975756721953012 ], [ -7.439387902083863, 56.943528231892344 ], [ -7.434643562086013, 56.911190101823564 ], [ -7.490987642201761, 56.914380811840104 ], [ -7.492145022216888, 56.879947111767912 ], [ -7.540276142320107, 56.871245061757897 ], [ -7.543628372336366, 56.846085341705511 ], [ -7.603375432466595, 56.830020941681859 ], [ -7.602672452483781, 56.779457011575168 ], [ -7.662632922608773, 56.779136171584597 ], [ -7.669691832608322, 56.820616701673316 ], [ -7.590710082424409, 56.873112901770519 ], [ -7.570378672365607, 56.918121041861781 ], [ -7.587605642394648, 56.937044191904597 ], [ -7.519219332231591, 56.993416252011272 ], [ -7.534269622255043, 57.015311272059904 ], [ -7.463609882103039, 57.028494322075119 ], [ -7.45425730206793, 57.071594642163909 ], [ -7.397880301952138, 57.067575682145396 ], [ -7.377916271904834, 57.083582282175357 ], [ -7.421968041979919, 57.129145822278801 ], [ -7.441615021984648, 57.230657182495058 ], [ -7.467222042034221, 57.241851642523116 ], [ -7.435222971963518, 57.252660492539874 ], [ -7.445061711971407, 57.288734812617172 ], [ -7.40803822188895, 57.303127462640425 ], [ -7.439579091926173, 57.385769162818939 ], [ -7.408787031857078, 57.399062622840894 ], [ -7.419504091856265, 57.466748702984098 ], [ -7.381100901759313, 57.514838303076971 ], [ -7.513108292013867, 57.583953313245935 ], [ -7.60168943219473, 57.603785893303957 ], [ -7.510271491991609, 57.633336483348117 ], [ -7.494694491948824, 57.663492173407882 ], [ -7.330129071592802, 57.691669513434498 ], [ -7.292029001496091, 57.741975643531255 ], [ -7.231800571379422, 57.713203663459815 ], [ -7.20190170130809, 57.739323253507898 ], [ -7.15253946120419, 57.741520433502593 ], [ -7.153958131226011, 57.685940623387928 ], [ -7.106491651128168, 57.682877273372114 ], [ -7.065633901032213, 57.714867643430075 ], [ -7.105242771104369, 57.744986043500234 ], [ -7.085567691045939, 57.796487763602563 ], [ -7.179339071230476, 57.830501833691727 ], [ -7.107091711074354, 57.845708613708425 ], [ -7.065155230992933, 57.827599073662604 ], [ -7.027999460910907, 57.841396003683386 ], [ -7.027676100896731, 57.88162321376614 ], [ -7.079338281007552, 57.872306923757563 ], [ -7.095108531033371, 57.893737923804899 ], [ -6.997158160812687, 57.943064753886063 ], [ -7.083580540986451, 57.963115453945214 ], [ -7.177445271162902, 58.026072644093865 ], [ -7.123160081000496, 58.178872754395513 ], [ -7.076079050897203, 58.192743184413942 ], [ -7.038320270801342, 58.245846024514215 ], [ -6.977831380680463, 58.226978864462779 ], [ -6.926762800554478, 58.287938114575809 ], [ -6.838074300368168, 58.291804154564346 ], [ -6.672579460004654, 58.354033074653778 ], [ -6.555906259758191, 58.370976984661674 ], [ -6.527896499691213, 58.39978937471345 ], [ -6.30071526919613, 58.490329994842867 ], [ -6.292979249173104, 58.512665624885855 ], [ -6.262309849108032, 58.520367704893992 ], [ -6.177849228952922, 58.46935224477177 ], [ -6.163522128940561, 58.419182774667782 ], [ -6.206798879045281, 58.368522164576177 ], [ -6.158051928955476, 58.342180704511783 ], [ -6.273490829207777, 58.288187834429877 ], [ -6.279383669227009, 58.266840584388156 ], [ -6.319665099310164, 58.263060804389788 ], [ -6.337927559357873, 58.232032334331258 ], [ -6.28909243926514, 58.213004854281607 ], [ -6.157441788979583, 58.268260624362789 ], [ -6.130984638929158, 58.259727994339435 ], [ -6.150256858981958, 58.219671714263079 ], [ -6.225947049148963, 58.179108064198594 ], [ -6.322421469342376, 58.185224024233015 ], [ -6.362675099429882, 58.168759354208795 ], [ -6.361204459479883, 58.01697334390024 ], [ -6.440396759655283, 57.975839373834027 ], [ -6.467897889725732, 57.934919593756568 ], [ -6.660197930131472, 57.898262853723175 ], [ -6.634705790093315, 57.858170503635598 ], [ -6.705095050241924, 57.845866123625314 ], [ -6.778730490408012, 57.803727943554279 ], [ -6.89129963065252, 57.768122013504417 ], [ -7.01206531093038, 57.687678423363074 ], [ -7.048971871006028, 57.690348293376069 ], [ -7.035616680990466, 57.655281883300837 ], [ -7.126373411212973, 57.557394763116164 ] ] ], [ [ [ -7.220392061341117, 57.756269133546603 ], [ -7.270819271442905, 57.768117513581153 ], [ -7.265868221419741, 57.806852723660242 ], [ -7.194311441279805, 57.776380713582959 ], [ -7.220392061341117, 57.756269133546603 ] ] ], [ [ [ -8.648210384392076, 57.836273293977001 ], [ -8.563166834206148, 57.829856223949072 ], [ -8.541253404166154, 57.799514013881762 ], [ -8.501672184081482, 57.790933173857027 ], [ -8.572379644237236, 57.790144143867508 ], [ -8.648210384392076, 57.836273293977001 ] ] ], [ [ [ -8.488496924027267, 57.883215964047643 ], [ -8.477876004009882, 57.861293254000024 ], [ -8.518093284097406, 57.864784214014293 ], [ -8.504127764061794, 57.882743584049372 ], [ -8.488496924027267, 57.883215964047643 ] ] ], [ [ [ -6.353298369514169, 57.87687067361292 ], [ -6.412564089625079, 57.902016483677258 ], [ -6.337693479469747, 57.912357943681926 ], [ -6.317765909434137, 57.899527553651367 ], [ -6.353298369514169, 57.87687067361292 ] ] ] ] } }
]
}
